name,website,email,phone_number,full_address,country_name,country_code,state_name,state_code,city_name,postal_code,lat,long,services,categories,amenities,payment_options,monday_business_hours,tuesday_business_hours,wednesday_business_hours,thursday_business_hours,friday_business_hours,saturday_business_hours,sunday_business_hours,daily_happy_hours,monday_happy_hours,tuesday_happy_hours,wednesday_happy_hours,thursday_happy_hours,friday_happy_hours,saturday_happy_hours,sunday_happy_hours,daily_food_specials,monday_food_specials,tuesday_food_specials,wednesday_food_specials,thursday_food_specials,friday_food_specials,saturday_food_specials,sunday_food_specials,daily_drink_specials,monday_drink_specials,tuesday_drink_specials,wednesday_drink_specials,thursday_drink_specials,friday_drink_specials,saturday_drink_specials,sunday_drink_specials,description,gallery_images
Brothers Railroad Inn,http://www.brothersrri.com/,,,"113 S Pennsylvania Ave, Independence, KS 67301",,,,,,,37.2226849,-95.7070014,,,"['4.5  (249)', '$$', 'Italian', 'Independence, KS', 'Closed ⋅ Opens 5PM', 'Italian steakhouse since 1950 serving classic entrees & pizza in casual digs with outdoor seating.']",,,,,,,,,,,,,,,,,,,,,,,,,,,,,,,,,,
Saiko Hibachi,,,(620) 926-1639,"100 N 25th St, Independence, KS 67301",,,,,,,37.2235351,-95.7299549,,,"['4.8  (54)', 'Restaurant', 'Independence, KS', 'Closed ⋅ Opens 11AM', 'Comfort food', 'Small plates', 'Quick bite']",,,,,,,,,,,,,,,,,,,,,,,,,,,,,,,,,,
Down Home Family Restaurant,,,(620) 331-6999,"1515 N Pennsylvania Ave, Independence, KS 67301",,,,,,,37.239688699999995,-95.7065734,,,"['4.4  (410)', '$', 'Family-friendly', 'Independence, KS', 'Closed ⋅ Opens 7AM', 'Comfort food', 'Small plates', 'Quick bite']",,,,,,,,,,,,,,,,,,,,,,,,,,,,,,,,,,
El Pueblito Mexican Restaurant,,,(620) 331-5860,"1721 N Pennsylvania Ave, Independence, KS 67301",,,,,,,37.2420015,-95.7065267,,,"['4.5  (658)', '$$', 'Mexican', 'Independence, KS', 'Closed ⋅ Opens 11AM', 'Comfort food', 'Small plates', 'Quick bite']",,,,,,,,,,,,,,,,,,,,,,,,,,,,,,,,,,
Sams Southern Eatery Independence KS,https://www.facebook.com/SamsSouthernEateryIndependence,,(620) 577-4272,"1100 E Main St, Independence, KS 67301",,,,,,,37.2235017,-95.6926628,,,"['4.5  (199)', '$$', 'Restaurant', 'Independence, KS', 'Closed ⋅ Opens 11AM', 'Dine-in', 'Takeout']",,,,,,,,,,,,,,,,,,,,,,,,,,,,,,,,,,
Casey's Creations,,,(620) 714-5030,"219 N Pennsylvania Ave, Independence, KS 67301",,,,,,,37.225115599999995,-95.70699789999999,,,"['4.6  (32)', 'Restaurant', 'Independence, KS', 'Closed ⋅ Opens 9AM', 'Comfort food', 'Quick bite', 'Casual']",,,,,,,,,,,,,,,,,,,,,,,,,,,,,,,,,,
Big Cheese Pizza,http://www.gobigcheesepizza.com/,,(620) 331-2330,"103 E Main St, Independence, KS 67301",,,,,,,37.223055599999995,-95.7063889,,,"['4.2  (282)', '$$', 'Pizza', 'Independence, KS', 'Closed ⋅ Opens 11AM', 'Mainstay for pizza, pasta & Italian sandwiches in family-friendly digs with arcade games.', 'Dine-in', 'Takeout', 'Delivery']",,,,,,,,,,,,,,,,,,,,,,,,,,,,,,,,,,
Uncle Jack's Bar & Grill,,,(620) 330-7090,"104 N Pennsylvania Ave, Independence, KS 67301",,,,,,,37.2235131,-95.70640259999999,,,"['4.1  (275)', '$$', 'Grill', 'Independence, KS', 'Closed ⋅ Opens 4PM', 'Late-night food', 'Comfort food', 'Small plates']",,,,,,,,,,,,,,,,,,,,,,,,,,,,,,,,,,
El Cancun,https://el-cancun.business.site/,,(620) 336-3242,"Cherryvale, KS 67335",,,,,,,37.2685014,-95.55205699999999,,,"['4.8  (155)', '$', 'Mexican', 'Cherryvale, KS', 'Closed ⋅ Opens 11AM', 'Comfort food', 'Small plates', 'Quick bite']",,,,,,,,,,,,,,,,,,,,,,,,,,,,,,,,,,
Braum's Ice Cream & Burger Restaurant,http://www.braums.com/stores/independence-ks-store-148/,,(620) 331-1514,"501 W Main St, Independence, KS 67301",,,,,,,37.2229044,-95.7127337,,,"['4.3  (897)', '$', 'Ice Cream', 'Independence, KS', 'Closed ⋅ Opens 6AM', 'Longtime Oklahoma-based chain offering fast-food burgers, ice cream & a full range of groceries.', 'Dine-in', 'Drive-through']",,,,,,,,,,,,,,,,,,,,,,,,,,,,,,,,,,
Arby's,https://locations.arbys.com/ks/independence/423-north-pennsylvania.html,,(620) 331-1116,"423 N Pennsylvania Ave, Independence, KS 67301",,,,,,,37.2272663,-95.7070122,,,"['4.0  (353)', '$', 'Fast Food', 'Independence, KS', 'Closed ⋅ Opens 10:45AM', 'Fast-food chain, known for its roast beef, serving up hot & cold sandwiches, fries & shakes.', 'Dine-in', 'Drive-through', 'Delivery']",,,,,,,,,,,,,,,,,,,,,,,,,,,,,,,,,,
Taco Bell,https://locations.tacobell.com/ks/independence/305-n-8th-st.html?utm_source=yext&utm_campaign=googlelistings&utm_medium=referral&utm_term=021199&utm_content=website&y_source=1_NjE0NDM3Mi03MTUtbG9jYXRpb24uZ29vZ2xlX3dlYnNpdGVfb3ZlcnJpZGU=,,,"305 N 8th St, Independence, KS 67301",,,,,,,37.2260765,-95.70842019999999,,,"['4.0  (497)', '$', 'Fast Food', 'Independence, KS', 'Closed ⋅ Opens 7AM', 'Fast-food chain serving Mexican-inspired fare such as tacos, quesadillas & nachos.', 'Dine-in', 'Drive-through', 'Delivery']",,,,,,,,,,,,,,,,,,,,,,,,,,,,,,,,,,
Dairy Queen Grill & Chill,https://www.dairyqueen.com/us-en/Locator/Detail/?localechange=1&store-id=1142&y_source=1_ODk5NjQzOS03MTUtbG9jYXRpb24ud2Vic2l0ZQ==,,(620) 331-8989,"1325 N Pennsylvania Ave, Independence, KS 67301",,,,,,,37.2372279,-95.7065612,,,"['4.3  (359)', '$', 'Fast Food', 'Independence, KS', 'Closed ⋅ Opens 10AM', 'Soft-serve ice cream & signature shakes top the menu at this classic burger & fries fast-food chain.', 'Dine-in', 'Drive-through', 'Delivery']",,,,,,,,,,,,,,,,,,,,,,,,,,,,,,,,,,
Dickey's Barbecue Pit,https://www.dickeys.com/?utm_source=google&utm_campaign=gmb&utm_medium=organic&utm_content=button-website,,(620) 714-5067,"204 N Pennsylvania Ave, Independence, KS 67301",,,,,,,37.2247098,-95.70648709999999,,,"['4.4  (33)', '$$', 'Barbecue', 'Independence, KS', 'Closed ⋅ Opens 11AM', 'BBQ chain eatery featuring house-smoked meats, stuffed baked potatoes & classic sides.', 'Dine-in', 'Curbside pickup', 'No-contact delivery']",,,,,,,,,,,,,,,,,,,,,,,,,,,,,,,,,,
Eggbert's,,,(620) 331-0520,"1724 W Main St, Independence, KS 67301",,,,,,,37.2238693,-95.7287063,,,"['4.0  (492)', '$$', 'Restaurant', 'Independence, KS', 'Closed ⋅ Opens 6AM', 'Comfort food', 'Small plates', 'Quick bite']",,,,,,,,,,,,,,,,,,,,,,,,,,,,,,,,,,
Tropical Sno,http://facebook.com/independencetropicalsno,,,"400 E Main St, Independence, KS 67301",,,,,,,37.2235213,-95.70228019999999,,,"['4.8  (61)', 'American', 'Independence, KS', 'Closed ⋅ Opens 1PM', 'Outdoor seating', 'Casual', 'Good for kids']",,,,,,,,,,,,,,,,,,,,,,,,,,,,,,,,,,
A B J's Cruiser Cafe,,,(620) 702-6202,"215 N Liberty St, Cherryvale, KS 67335",,,,,,,37.2705991,-95.5558877,,,"['4.5  (101)', 'American', 'Cherryvale, KS', 'Closed ⋅ Opens 6AM', 'Comfort food', 'Small plates', 'Quick bite']",,,,,,,,,,,,,,,,,,,,,,,,,,,,,,,,,,
Pizza Hut,https://locations.pizzahut.com/ks/independence/1801-n-pennsylvania-ave?utm_medium=organic&utm_source=local&utm_campaign=googlelistings&utm_content=website&utm_term=299497,,(620) 331-3681,"1801 N Pennsylvania Ave, Independence, KS 67301",,,,,,,37.242863799999995,-95.7066759,,,"['3.8  (273)', '$', 'Pizza', 'Independence, KS', 'Closed ⋅ Opens 10:30AM', 'Family-friendly chain known for its made-to-order pizzas.', 'Dine-in', 'Curbside pickup', 'No-contact delivery']",,,,,,,,,,,,,,,,,,,,,,,,,,,,,,,,,,
"Simple Simon's Pizza - Cherryvale, KS",http://www.simplesimonspizza.com/,,(620) 336-2902,"1036 W Main St, Cherryvale, KS 67335",,,,,,,37.2691843,-95.5666603,,,"['4.3  (27)', '$', 'Pizza', 'Cherryvale, KS', 'In Jump Start', 'Closed ⋅ Opens 11AM', 'A variety of pizzas, subs & calzones fills the menu at this easygoing Italian chain.']",,,,,,,,,,,,,,,,,,,,,,,,,,,,,,,,,,
M J's Burger House,https://m.facebook.com/mjsburgerhouse/,,(620) 784-2323,"9269, 1004 E 4th St, Altamont, KS 67330",,,,,,,37.192648399999996,-95.28847309999999,,,"['4.5  (216)', '$', 'Hamburger', 'Altamont, KS', 'Closed ⋅ Opens 10:30AM', 'Comfort food', 'Small plates', 'Quick bite']",,,,,,,,,,,,,,,,,,,,,,,,,,,,,,,,,,
Big Sky Bistro,,,(620) 421-2710,"1500 Main St, Parsons, KS 67357",,,,,,,37.340338599999995,-95.2577847,,,"['4.9  (33)', 'Bistro', 'Parsons, KS', 'Closed ⋅ Opens 11AM', 'Comfort food', 'Quick bite', 'Healthy options']",,,,,,,,,,,,,,,,,,,,,,,,,,,,,,,,,,
Down Town Grill,,,,"414 N 7th St, Fredonia, KS 66736",,,,,,,37.5341713,-95.8262622,,,"['4.8  (145)', '$', 'American', 'Fredonia, KS', 'Closed ⋅ Opens 6:30AM', 'Comfort food', 'Outdoor seating', 'Quick bite']",,,,,,,,,,,,,,,,,,,,,,,,,,,,,,,,,,
The Kitchen Table,,,(620) 607-1200,"114 S 3rd St, Fredonia, KS 66736",,,,,,,37.5298077,-95.83204909999999,,,"['4.8  (206)', 'Restaurant', 'Fredonia, KS', 'Closed ⋅ Opens 6:30AM', 'Dine-in', 'Takeout', 'Delivery']",,,,,,,,,,,,,,,,,,,,,,,,,,,,,,,,,,
Sonic Drive-In,https://locations.sonicdrivein.com/ks/independence/200-west-chestnut-street.html,,(620) 331-4930,"200 W Chestnut St, Independence, KS 67301",,,,,,,37.2268863,-95.7082808,,,"['3.7  (394)', '$', 'Fast Food', 'Independence, KS', 'Closed ⋅ Opens 6AM', 'Fast-food burger & fries joint with an old-school feel, including retro drive-in service.', 'Dine-in', 'Drive-through', 'Delivery']",,,,,,,,,,,,,,,,,,,,,,,,,,,,,,,,,,
El Pueblito,,,(620) 421-3684,"1804 Main St, Parsons, KS 67357",,,,,,,37.340277799999996,-95.2627778,,,"['4.5  (527)', '$', 'Mexican', 'Parsons, KS', 'Closed ⋅ Opens 11AM', 'Comfort food', 'Small plates', 'Quick bite']",,,,,,,,,,,,,,,,,,,,,,,,,,,,,,,,,,
Pizza Hut,https://locations.pizzahut.com/ks/cherryvale/514-s-liberty-st?utm_medium=organic&utm_source=local&utm_campaign=googlelistings&utm_content=website&utm_term=293294,,(620) 336-2661,"514 S Liberty St, Cherryvale, KS 67335",,,,,,,37.264037,-95.5558393,,,"['3.8  (104)', '$', 'Pizza', 'Cherryvale, KS', 'Closed ⋅ Opens 4PM', 'Family-friendly chain known for its made-to-order pizzas.', 'Dine-in', 'Curbside pickup', 'No-contact delivery']",,,,,,,,,,,,,,,,,,,,,,,,,,,,,,,,,,
El Tapatio,,,(620) 920-4040,"105 S 4th St, Neodesha, KS 66757",,,,,,,37.4171397,-95.67845539999999,,,"['4.1  (93)', 'Mexican', 'Neodesha, KS', 'Closed ⋅ Opens 11AM', 'Comfort food', 'Small plates', 'Quick bite']",,,,,,,,,,,,,,,,,,,,,,,,,,,,,,,,,,
Hickory Hole,,,,"720 Main St, Parsons, KS 67357",,,,,,,37.340165,-95.2458386,,,"['4.6  (155)', '$$', 'Barbecue', 'Parsons, KS', 'Closed ⋅ Opens 11AM', 'Comfort food', 'Small plates', 'Quick bite']",,,,,,,,,,,,,,,,,,,,,,,,,,,,,,,,,,
Ballers sports bar and grill,https://www.facebook.com/BallersSports/,,(620) 423-3016,"2007 Belmont Ave, Parsons, KS 67357",,,,,,,37.338892,-95.2660563,,,"['4.6  (135)', 'Grill', 'Parsons, KS', 'Closed ⋅ Opens 11AM', 'Bar games', 'Late-night food', 'Comfort food']",,,,,,,,,,,,,,,,,,,,,,,,,,,,,,,,,,
Remnant Cafe,,,(620) 717-4185,"1719 Main St, Parsons, KS 67357",,,,,,,37.340640199999996,-95.2618145,,,"['4.6  (126)', '$', 'Restaurant', 'Parsons, KS', 'Closed ⋅ Opens 7AM', 'Comfort food', 'Breakfast', 'Outdoor seating']",,,,,,,,,,,,,,,,,,,,,,,,,,,,,,,,,,
Shredders,https://www.facebook.com/shredderssmokehouse/,,,"3330 Main St, Parsons, KS 67357",,,,,,,37.3399056,-95.2887626,,,"['4.5  (228)', '$$', 'Barbecue', 'Parsons, KS', 'Closed ⋅ Opens 11AM', 'Comfort food', 'Small plates', 'Quick bite']",,,,,,,,,,,,,,,,,,,,,,,,,,,,,,,,,,
Ernesto's Méxican Food,https://www.facebook.com/pages/category/Mexican-Restaurant/Ernestos-Mexican-Food-319323261496083/,,(620) 421-2930,"200 N Central Ave, Parsons, KS 67357",,,,,,,37.3416667,-95.2644444,,,"['4.5  (486)', '$$', 'Mexican', 'Parsons, KS', 'Closed ⋅ Opens 4:30PM', 'Comfort food', 'Small plates', 'Good for kids']",,,,,,,,,,,,,,,,,,,,,,,,,,,,,,,,,,
Kitchen Pass Restaurant & Bar,http://www.kitchenpass.net/,,(620) 421-1907,"1711 Main St, Parsons, KS 67357",,,,,,,37.3407336,-95.2613939,,,"['4.2  (443)', '$$', 'American', 'Parsons, KS', 'Closed ⋅ Opens 11AM', 'Dine-in', 'Takeout', 'Delivery']",,,,,,,,,,,,,,,,,,,,,,,,,,,,,,,,,,
Pizzo's Restaurant,https://www.facebook.com/pizzosrestaurant/,,,"2318 N 16th St, Parsons, KS 67357",,,,,,,37.363467299999996,-95.2591386,,,"['4.4  (221)', 'Pizza', 'Parsons, KS', 'Closed ⋅ Opens 7AM', 'Comfort food', 'Small plates', 'Quick bite']",,,,,,,,,,,,,,,,,,,,,,,,,,,,,,,,,,
Thai Kitchen,,,(620) 288-1018,"332N 3rd St, Fredonia, KS 66736",,,,,,,37.5334445,-95.8322932,,,"['4.7  (21)', 'Thai', 'Fredonia, KS', 'Closed ⋅ Opens 11AM', 'Comfort food', 'Small plates', 'Healthy options']",,,,,,,,,,,,,,,,,,,,,,,,,,,,,,,,,,
Poor Boys Steak House,,,(620) 839-5122,"127 Galveston St, Thayer, KS 66776",,,,,,,37.4887369,-95.47075389999999,,,"['4.6  (279)', '$$', 'Steak', 'Thayer, KS', 'Closed ⋅ Opens 5PM', 'Comfort food', 'Outdoor seating', 'Cozy']",,,,,,,,,,,,,,,,,,,,,,,,,,,,,,,,,,
El Puerto Mexican restaurant,,,(620) 378-2525,"1400 N 2nd St, Fredonia, KS 66736",,,,,,,37.5460195,-95.83284719999999,,,"['4.4  (205)', '$', 'Mexican', 'Fredonia, KS', 'Closed ⋅ Opens 11AM', 'Comfort food', 'Small plates', 'Quick bite']",,,,,,,,,,,,,,,,,,,,,,,,,,,,,,,,,,
Stockyard Restaurant,,,(620) 378-2563,"360 Madison St, Fredonia, KS 66736",,,,,,,37.5337211,-95.84204419999999,,,"['4.5  (137)', '$$', 'Steak', 'Fredonia, KS', 'Closed ⋅ Opens 5PM Thu', 'Comfort food', 'Healthy options', 'Great dessert']",,,,,,,,,,,,,,,,,,,,,,,,,,,,,,,,,,
Pizza Fly,,,,"1802 N Pennsylvania Ave, Independence, KS 67301",,,,,,,37.2427164,-95.7062662,,,"['No reviews', 'Restaurant', 'Independence, KS', 'Comfort food', 'Quick bite', 'Casual']",,,,,,,,,,,,,,,,,,,,,,,,,,,,,,,,,,
AlKeyes Bar And Grill,http://alkeyes-bar-and-grill.business.site/,,(620) 378-3314,"323 N 6th St, Fredonia, KS 66736",,,,,,,37.533304,-95.8281738,,,"['4.2  (41)', 'Grill', 'Fredonia, KS', 'Closed ⋅ Opens 4PM', 'Dine-in', 'Curbside pickup', 'Delivery']",,,,,,,,,,,,,,,,,,,,,,,,,,,,,,,,,,
Dos Fronteras,http://www.dosfronteras.com/,,(620) 717-7437,"3400 Main St, Parsons, KS 67357",,,,,,,37.339963,-95.2892208,,,"['4.3  (168)', '$$', 'Mexican', 'Parsons, KS', 'Comfort food', 'Small plates', 'Quick bite']",,,,,,,,,,,,,,,,,,,,,,,,,,,,,,,,,,
Braum's Ice Cream & Burger Restaurant,https://www.braums.com/store/500-main-st-parsons-parsons-ks/,,,"500 Main St, Parsons, KS 67357",,,,,,,37.3399584,-95.2407226,,,"['4.2  (579)', '$', 'Ice Cream', 'Parsons, KS', 'Closed ⋅ Opens 6AM', 'Longtime Oklahoma-based chain offering fast-food burgers, ice cream & a full range of groceries.', 'Dine-in', 'Drive-through']",,,,,,,,,,,,,,,,,,,,,,,,,,,,,,,,,,
Peter's Chinese Buffet,,,(620) 423-3338,"2424 Main St, Parsons, KS 67357",,,,,,,37.3402959,-95.2735148,,,"['4.1  (173)', '$', 'Chinese', 'Parsons, KS', 'Closed ⋅ Opens 11AM', 'Comfort food', 'Small plates', 'Quick bite']",,,,,,,,,,,,,,,,,,,,,,,,,,,,,,,,,,
Chinese Chef,,,(620) 423-3914,"900 N 16th St, Parsons, KS 67357",,,,,,,37.3491667,-95.2597222,,,"['4.0  (617)', '$$', 'Chinese', 'Parsons, KS', 'Closed ⋅ Opens 11AM', 'Comfort food', 'Small plates', 'Quick bite']",,,,,,,,,,,,,,,,,,,,,,,,,,,,,,,,,,
McDonald's,https://www.mcdonalds.com/us/en-us/location/KS/INDEPENDENCE/401-W-MYRTLE/7540.html?cid=RF:YXT:GMB::Clicks,,(620) 331-7177,"401 W Myrtle St, Independence, KS 67301",,,,,,,37.2239843,-95.7112657,,,"['3.3  (700)', '$', 'Fast Food', 'Independence, KS', 'Closed ⋅ Opens 6AM', 'Classic, long-running fast-food chain known for its burgers, fries & shakes.']",,,,,,,,,,,,,,,,,,,,,,,,,,,,,,,,,,
El Pueblito Mexican Restaurant,,,,"101 E 28th St, Chanute, KS 66720",,,,,,,37.6526516,-95.45123439999999,,,"['4.5  (704)', '$', 'Mexican', 'Chanute, KS', 'Closed ⋅ Opens 11AM', 'Dine-in', 'Takeout', 'Delivery']",,,,,,,,,,,,,,,,,,,,,,,,,,,,,,,,,,
The Grain Bin Restaurant,,,(620) 431-7373,"314 E Main St, Chanute, KS 66720",,,,,,,37.681925199999995,-95.4484092,,,"['4.5  (514)', '$', 'American', 'Chanute, KS', 'Closed ⋅ Opens 6AM', 'Cash-only', 'Comfort food', 'Breakfast']",,,,,,,,,,,,,,,,,,,,,,,,,,,,,,,,,,
Subway,https://order.subway.com/en-us/restaurant/13293/menu/?utm_source=yxt-goog&utm_medium=local&utm_term=acq&utm_content=13293&utm_campaign=evergreen-2020,,(620) 331-5200,"401 W Main St Suite B, Independence, KS 67301",,,,,,,37.2228748,-95.7115005,,,"['4.1  (88)', '$', 'Sandwich', 'Independence, KS', 'Closed ⋅ Opens 7AM', 'Casual counter-serve chain for build-your-own sandwiches & salads, with health-conscious options.', 'Dine-in', 'Takeout', 'Delivery']",,,,,,,,,,,,,,,,,,,,,,,,,,,,,,,,,,
Pizza Hut,https://locations.pizzahut.com/ks/neodesha/725-main-st?utm_medium=organic&utm_source=local&utm_campaign=googlelistings&utm_content=website&utm_term=296833,,(620) 325-3647,"725 Main St, Neodesha, KS 66757",,,,,,,37.417293,-95.6834344,,,"['3.8  (103)', '$', 'Pizza', 'Neodesha, KS', 'Closed ⋅ Opens 4PM', 'Family-friendly chain known for its made-to-order pizzas.', 'Dine-in', 'Curbside pickup', 'No-contact delivery']",,,,,,,,,,,,,,,,,,,,,,,,,,,,,,,,,,
Rameys bar and grill,,,(620) 423-0424,"120 Gray Rd, Dennis, KS 67341",,,,,,,37.3435489,-95.41307409999999,,,"['4.3  (41)', 'Grill', 'Dennis, KS', 'Closed ⋅ Opens 3PM', 'Comfort food', 'Fast service', 'Cozy']",,,,,,,,,,,,,,,,,,,,,,,,,,,,,,,,,,
Sonic Drive-In,https://locations.sonicdrivein.com/ks/parsons/3113-main-street.html,,(620) 421-5440,"3113 Main St, Parsons, KS 67357",,,,,,,37.3406709,-95.2837828,,,"['4.0  (512)', '$', 'Fast Food', 'Parsons, KS', 'Closed ⋅ Opens 6AM', 'Fast-food burger & fries joint with an old-school feel, including retro drive-in service.']",,,,,,,,,,,,,,,,,,,,,,,,,,,,,,,,,,
El Rincon Azteca Mexican Restaurant,http://www.chanutemexicanfood.com/,,(620) 902-5092,"1116 N Santa Fe Ave, Chanute, KS 66720",,,,,,,37.692821099999996,-95.4523504,,,"['4.6  (172)', 'Mexican', 'Chanute, KS', 'Closed ⋅ Opens 11AM', 'Dine-in', 'Takeout']",,,,,,,,,,,,,,,,,,,,,,,,,,,,,,,,,,
St Paul Cafe,,,(620) 449-2222,"717 Washington St, St Paul, KS 66771",,,,,,,37.514078399999995,-95.17282639999999,,,"['4.6  (71)', '$', 'American', 'St Paul, KS', 'Closed ⋅ Opens 6:30AM', 'Comfort food', 'Small plates', 'Quick bite']",,,,,,,,,,,,,,,,,,,,,,,,,,,,,,,,,,
Sonic Drive-In,https://locations.sonicdrivein.com/ks/neodesha/1317-west-main-street.html,,(620) 325-5508,"1317 West, Main St, Neodesha, KS 66757",,,,,,,37.417252,-95.69040179999999,,,"['3.7  (311)', '$', 'Fast Food', 'Neodesha, KS', 'Closed ⋅ Opens 7AM', 'Fast-food burger & fries joint with an old-school feel, including retro drive-in service.']",,,,,,,,,,,,,,,,,,,,,,,,,,,,,,,,,,
Horizons At Prairie Ridge,,,(620) 244-3454,"15900 US-59, Erie, KS 66733",,,,,,,37.5998053,-95.2514712,,,"['4.7  (44)', 'Restaurant', 'Erie, KS', 'Closed ⋅ Opens 11AM', 'Comfort food', 'Small plates', 'Great cocktails']",,,,,,,,,,,,,,,,,,,,,,,,,,,,,,,,,,
Little China Restaurant,,,(620) 431-6565,"27 W Main St, Chanute, KS 66720",,,,,,,37.6814976,-95.45369529999999,,,"['4.2  (186)', '$', 'Chinese', 'Chanute, KS', 'Closed ⋅ Opens 11AM', 'Dine-in', 'Takeout', 'Delivery']",,,,,,,,,,,,,,,,,,,,,,,,,,,,,,,,,,
PlayMakers Bar & Grill,https://playmakers-bar-grill.business.site/,,(620) 431-7733,"221 E Main St, Chanute, KS 66720",,,,,,,37.681647999999996,-95.4494146,,,"['4.1  (304)', '$$', 'Grill', 'Chanute, KS', 'Closed ⋅ Opens 11AM', 'Dine-in', 'Curbside pickup', 'Delivery']",,,,,,,,,,,,,,,,,,,,,,,,,,,,,,,,,,
Horton's Pizza Plus,http://hortonspizza.com/,,,"1201 Main St, Parsons, KS 67357",,,,,,,37.340726,-95.25317,,,"['3.8  (173)', '$$', 'Pizza', 'Parsons, KS', 'Closed ⋅ Opens 11AM Thu', 'Pizza, burgers, chicken, sandwiches & more offered in a convenience store setting.', 'Dine-in', 'Takeout', 'Delivery']",,,,,,,,,,,,,,,,,,,,,,,,,,,,,,,,,,
Arby's,https://locations.arbys.com/ks/chanute/3301-north-blue-comet-dr..html,,(620) 431-0805,"3301 North Blue Comet Dr, Chanute, KS 66720",,,,,,,37.6465216,-95.4756831,,,"['3.9  (417)', '$', 'Fast Food', 'Chanute, KS', ""In Love's Travel Stop"", 'Closed ⋅ Opens 7AM', 'Fast-food chain, known for its roast beef, serving up hot & cold sandwiches, fries & shakes.', 'Dine-in', 'Takeout', 'Delivery']",,,,,,,,,,,,,,,,,,,,,,,,,,,,,,,,,,
Sonic Drive-In,https://locations.sonicdrivein.com/ks/cherryvale/1068-west-main-street.html,,(620) 336-2303,"1068 W Main St, Cherryvale, KS 67335",,,,,,,37.269166,-95.5675632,,,"['3.5  (346)', '$', 'Fast Food', 'Cherryvale, KS', 'Closed ⋅ Opens 7AM', 'Fast-food burger & fries joint with an old-school feel, including retro drive-in service.']",,,,,,,,,,,,,,,,,,,,,,,,,,,,,,,,,,
D'Angelo's Pizzeria,,,(620) 244-5618,"302 S Main St, Erie, KS 66733",,,,,,,37.5661203,-95.2432207,,,"['4.2  (76)', 'Pizza', 'Erie, KS', 'Closed ⋅ Opens 11AM', 'Comfort food', 'Small plates', 'Quick bite']",,,,,,,,,,,,,,,,,,,,,,,,,,,,,,,,,,
Daylight Donuts,https://www.daylightdonutsofchanute.com/,,(620) 431-4688,"1029 S Santa Fe Ave, Chanute, KS 66720",,,,,,,37.6703513,-95.45274649999999,,,"['4.5  (83)', '$', 'Restaurant', 'Chanute, KS', 'Closed ⋅ Opens 5AM', 'Dine-in', 'Takeout', 'Delivery']",,,,,,,,,,,,,,,,,,,,,,,,,,,,,,,,,,
Eastern Chinese,https://easternchanute.com/,,(620) 431-9088,"511 W Cherry St, Chanute, KS 66720",,,,,,,37.6878999,-95.4597819,,,"['4.2  (74)', 'Chinese', 'Chanute, KS', 'Closed ⋅ Opens 11AM', 'Dine-in', 'Takeout', 'Delivery']",,,,,,,,,,,,,,,,,,,,,,,,,,,,,,,,,,
Opies Family Restaurant,,,(620) 473-3040,"802 Bridge St, Humboldt, KS 66748",,,,,,,37.811530999999995,-95.43666069999999,,,"['4.3  (204)', '$$', 'Family-friendly', 'Humboldt, KS', 'Closed ⋅ Opens 11AM', 'Dine-in', 'Takeout', 'Delivery']",,,,,,,,,,,,,,,,,,,,,,,,,,,,,,,,,,
TJ's BBQ,,,(620) 473-5020,"719 S 9th St, Humboldt, KS 66748",,,,,,,37.8051457,-95.4351653,,,"['4.6  (38)', 'Restaurant', 'Humboldt, KS', 'Closed ⋅ Opens 11AM Thu', 'Dine-in', 'Takeout', 'Delivery']",,,,,,,,,,,,,,,,,,,,,,,,,,,,,,,,,,
Bordertown II,,,(918) 255-6300,"2901 W, Main St, Parsons, KS 67357",,,,,,,37.340780099999996,-95.2802396,,,"['4.0  (1)', 'Pizza', 'Parsons, KS', 'Comfort food', 'Casual', 'Good for kids']",,,,,,,,,,,,,,,,,,,,,,,,,,,,,,,,,,
Sonic Drive-In,https://locations.sonicdrivein.com/ks/cherryvale/1068-west-main-street.html,,(620) 336-2303,"1068 W Main St, Cherryvale, KS 67335",,,,,,,37.269166,-95.5675632,,,"['3.5  (346)', '$', 'Fast Food', 'Cherryvale, KS', 'Closed ⋅ Opens 7AM', 'Fast-food burger & fries joint with an old-school feel, including retro drive-in service.']",,,,,,,,,,,,,,,,,,,,,,,,,,,,,,,,,,
Taco Bell,https://locations.tacobell.com/ks/parsons/301-n--16th-street.html?utm_source=yext&utm_campaign=googlelistings&utm_medium=referral&utm_term=033582&utm_content=website&y_source=1_ODQ4NjcxOS03MTUtbG9jYXRpb24uZ29vZ2xlX3dlYnNpdGVfb3ZlcnJpZGU=,,,"301 N 16th St, Parsons, KS 67357",,,,,,,37.3423374,-95.258906,,,"['3.7  (267)', '$', 'Fast Food', 'Parsons, KS', 'Closed ⋅ Opens 10AM', 'Fast-food chain serving Mexican-inspired fare such as tacos, quesadillas & nachos.']",,,,,,,,,,,,,,,,,,,,,,,,,,,,,,,,,,
Dalton's Back 9 Bar and Grill,,,(620) 433-5665,"511 S Country Club Rd, Chanute, KS 66720",,,,,,,37.6778088,-95.49573,,,"['4.1  (99)', '$$', 'Grill', 'Chanute, KS', 'In Chanute Country Club', 'Closed ⋅ Opens 11AM', 'Curbside pickup', 'Comfort food', 'Outdoor seating']",,,,,,,,,,,,,,,,,,,,,,,,,,,,,,,,,,
Granny B's Family Diner,,,(620) 605-6111,"2930 Main St, Parsons, KS 67357",,,,,,,37.3401991,-95.2802634,,,"['4.3  (166)', '$', 'Diner', 'Parsons, KS', 'Closed ⋅ Opens 7AM', '""This restaurant has awhole lotta experience in the kitchen and on the\xa0...""']",,,,,,,,,,,,,,,,,,,,,,,,,,,,,,,,,,
A&W Restaurant,https://www.awrestaurants.com/,,(620) 365-3011,"1421 East St, Iola, KS 66749",,,,,,,37.9218617,-95.3876976,,,"['4.5  (962)', '$', 'Fast Food', 'Iola, KS', 'Closed ⋅ Opens 10AM', 'Fast-food outlet serving up namesake root beer & floats, plus burgers, chicken, hot dogs & fries.', 'Dine-in', 'Drive-through', 'Delivery']",,,,,,,,,,,,,,,,,,,,,,,,,,,,,,,,,,
Pizza Hut,https://locations.pizzahut.com/ks/fredonia/1831-e-washington?utm_medium=organic&utm_source=local&utm_campaign=googlelistings&utm_content=website&utm_term=280558,,(620) 378-4308,"1831 E Washington St, Fredonia, KS 66736",,,,,,,37.5303405,-95.8106732,,,"['3.6  (120)', '$', 'Pizza', 'Fredonia, KS', 'Closed ⋅ Opens 4PM', 'Family-friendly chain known for its made-to-order pizzas.', 'Dine-in', 'Curbside pickup', 'No-contact delivery']",,,,,,,,,,,,,,,,,,,,,,,,,,,,,,,,,,
Dudley's Done Right BBQ,,,(620) 380-6580,"2402 N State St, Iola, KS 66749",,,,,,,37.943638,-95.40945939999999,,,"['4.7  (616)', '$', 'Barbecue', 'Iola, KS', 'Closed ⋅ Opens 11AM', 'Dine-in', 'Takeout', 'Delivery']",,,,,,,,,,,,,,,,,,,,,,,,,,,,,,,,,,
Subway,https://order.subway.com/en-us/restaurant/53809/menu/?utm_source=yxt-goog&utm_medium=local&utm_term=acq&utm_content=53809&utm_campaign=evergreen-2020,,(620) 336-2910,"Jump Start, 1036 W Main St C-Store, Cherryvale, KS 67335",,,,,,,37.269041099999995,-95.56667859999999,,,"['4.1  (47)', '$', 'Sandwich', 'Cherryvale, KS', 'Closed ⋅ Opens 7AM', '""... fast and friendly service, then this is the restaurant for you.""', 'Dine-in', 'Takeout', 'Delivery']",,,,,,,,,,,,,,,,,,,,,,,,,,,,,,,,,,
Tony's Tamales,,,,"1800 Main St, Parsons, KS 67357",,,,,,,37.3403516,-95.2625604,,,"['5.0  (3)', 'Restaurant', 'Parsons, KS', 'Comfort food', 'Quick bite', 'Casual']",,,,,,,,,,,,,,,,,,,,,,,,,,,,,,,,,,
El Charro of Iola,,,(620) 365-7771,"17 W Madison Ave, Iola, KS 66749",,,,,,,37.9211998,-95.40530629999999,,,"['4.4  (615)', '$', 'Mexican', 'Iola, KS', 'Closed ⋅ Opens 11AM', 'Comfort food', 'Small plates', 'Quick bite']",,,,,,,,,,,,,,,,,,,,,,,,,,,,,,,,,,
B & B Country Cafe,,,(620) 365-8691,"324 W Garfield St, Iola, KS 66749",,,,,,,37.9336747,-95.4086241,,,"['4.4  (197)', '$', 'Restaurant', 'Iola, KS', 'Closed ⋅ Opens 6AM', 'Dine-in', 'Takeout', 'Delivery']",,,,,,,,,,,,,,,,,,,,,,,,,,,,,,,,,,
Rookies Sports Bar & Grill,,,,"105 East W Jackson Ave, Iola, KS 66749",,,,,,,37.9228971,-95.40301819999999,,,"['4.4  (216)', '$$', 'Restaurant', 'Iola, KS', 'Closed ⋅ Opens 11AM', 'Dine-in', 'Takeout', 'Delivery']",,,,,,,,,,,,,,,,,,,,,,,,,,,,,,,,,,
vinayaka hot chips,,,,"15589 Quinter Rd, Altoona, KS 66710",,,,,,,37.5992631,-95.6591244,,,"['No reviews', 'Fish & Chips', 'Altoona, KS', 'Temporarily closed']",,,,,,,,,,,,,,,,,,,,,,,,,,,,,,,,,,
Colborn's Kitchen,https://www.facebook.com/Colborns-Kitchen-198551863901857/,,(620) 433-5759,"5 E Main St, Chanute, KS 66720",,,,,,,37.6814967,-95.4522071,,,"['4.7  (197)', 'Diner', 'Chanute, KS', 'Temporarily closed', '""The restaurant was packed, and the service was still friendly and fast\xa0...""']",,,,,,,,,,,,,,,,,,,,,,,,,,,,,,,,,,
CJ's Country Club,https://cjs-country-club.business.site/?utm_source=gmb&utm_medium=referral,,(920) 826-3013,"3049 County Rd EE, Abrams, WI 54101",,,,,,,44.7835828,-88.0498521,,,"['4.4  (5)', 'Grill', 'Abrams, WI', 'Fast service', 'Casual', 'Groups']",,,,,,,,,,,,,,,,,,,,,,,,,,,,,,,,,,
Little Caesars Pizza,https://littlecaesars.com/en-us/store/12247?utm_source=google&utm_medium=local&utm_campaign=localmaps&utm_content=12247,,(920) 826-6400,"2516 W Frontier Rd, Abrams, WI 54101",,,,,,,44.681612,-88.04910799999999,,,"['3.7  (15)', '$', 'Pizza', 'Abrams, WI', 'Closed ⋅ Opens 10AM', 'Carry-out chain featuring chicken wings, signature breadsticks & pizza tossed from housemade dough.', 'Dine-in', 'Takeout', 'Delivery']",,,,,,,,,,,,,,,,,,,,,,,,,,,,,,,,,,
El Tapatio,http://eltapatiogb.com/,,(920) 430-1442,"1638 University Ave, Green Bay, WI 54302",,,,,,,44.5119099,-87.98137469999999,,,"['4.4  (218)', 'Mexican grocery store', 'Green Bay, WI', 'Closed ⋅ Opens 8AM', '""... restaurants in green bay and in the surrounding areas.""']",,,,,,,,,,,,,,,,,,,,,,,,,,,,,,,,,,
Burger King,https://burgerking.com/store-locator/store/restaurant_7195,,(920) 846-0770,"343 E Highland Dr, Oconto Falls, WI 54154",,,,,,,44.8831242,-88.13883129999999,,,"['3.9  (241)', '$', 'Fast Food', 'Oconto Falls, WI', 'Closed ⋅ Opens 6AM', 'Well-known fast-food chain serving grilled burgers, fries & shakes, plus breakfast.', 'Dine-in', 'Drive-through', 'Delivery']",,,,,,,,,,,,,,,,,,,,,,,,,,,,,,,,,,
Cubby Hole Bar & Grill,,,(920) 437-7078,"1570 Elizabeth St, Green Bay, WI 54302",,,,,,,44.5209372,-87.9825259,,,"['4.0  (63)', 'Grill', 'Green Bay, WI', 'Closed ⋅ Opens 6AM', 'Bar games', 'Late-night food', 'Comfort food']",,,,,,,,,,,,,,,,,,,,,,,,,,,,,,,,,,
Marco's Pizza,https://www.marcos.com/,,(920) 328-0833,"1635 Main St, Green Bay, WI 54302",,,,,,,44.503184999999995,-87.98317,,,"['5.0  (1)', 'Pizza', 'Green Bay, WI', 'Closed ⋅ Opens 11AM', 'No-contact delivery', 'Comfort food', 'Quick bite']",,,,,,,,,,,,,,,,,,,,,,,,,,,,,,,,,,
Noodles and Company,https://locations.noodles.com/wi/green-bay/2485-lineville-rd.html,,(920) 227-1799,"2485 Lineville Rd Suite 101, Green Bay, WI 54313",,,,,,,44.5905469,-88.080725,,,"['3.7  (15)', 'Restaurant', 'Green Bay, WI', 'Closed ⋅ Opens 10:30AM', 'Dine-in', 'Takeout', 'No-contact delivery']",,,,,,,,,,,,,,,,,,,,,,,,,,,,,,,,,,
Burger King,https://burgerking.com/store-locator/store/restaurant_2002,,(920) 465-8510,"2219 Main St, Green Bay, WI 54302",,,,,,,44.4857474,-87.9698963,,,"['3.7  (286)', '$', 'Fast Food', 'Green Bay, WI', 'Closed ⋅ Opens 6AM', 'Well-known fast-food chain serving grilled burgers, fries & shakes, plus breakfast.', 'Dine-in', 'Drive-through', 'Delivery']",,,,,,,,,,,,,,,,,,,,,,,,,,,,,,,,,,
Carnitas El Bajío store #1,http://carnitaselbajiogreenbay.com/,,(920) 468-4940,"1698 E Mason St, Green Bay, WI 54302",,,,,,,44.4934452,-87.9848155,,,"['4.2  (106)', 'Restaurant', 'Green Bay, WI', 'Closed ⋅ Opens 10AM', '""It\'s one of the best Mexican restaurants we have been to lately!""', 'Dine-in']",,,,,,,,,,,,,,,,,,,,,,,,,,,,,,,,,,
McDonald's,https://www.mcdonalds.com/us/en-us/location/WI/GREEN-BAY/1903-S-WEBSTER-AVE/6481.html?cid=RF:YXT:GMB::Clicks,,(920) 432-9220,"1903 S Webster Ave, Green Bay, WI 54301",,,,,,,44.485932,-88.020055,,,"['3.7  (486)', '$', 'Fast Food', 'Green Bay, WI', 'Closed ⋅ Opens 5AM', 'Classic, long-running fast-food chain known for its burgers, fries & shakes.', 'Dine-in', 'Drive-through', 'No-contact delivery']",,,,,,,,,,,,,,,,,,,,,,,,,,,,,,,,,,
Subway,https://order.subway.com/en-us/restaurant/13501/menu/?utm_source=yxt-goog&utm_medium=local&utm_term=acq&utm_content=13501&utm_campaign=evergreen-2020,,(920) 487-3637,"2217 Lake St, Algoma, WI 54201",,,,,,,44.5944314,-87.4442268,,,"['4.3  (101)', '$', 'Sandwich', 'Algoma, WI', 'Closed ⋅ Opens 9AM', 'Casual counter-serve chain for build-your-own sandwiches & salads, with health-conscious options.', 'Dine-in', 'Takeout', 'Delivery']",,,,,,,,,,,,,,,,,,,,,,,,,,,,,,,,,,
Freddy's Silver Rail,,,(920) 826-2337,"5747 Heimke Ln, Abrams, WI 54101",,,,,,,44.7731285,-88.05369089999999,,,"['5.0  (1)', 'Restaurant', 'Abrams, WI', 'Closed ⋅ Opens 7AM', 'Comfort food', 'Small plates', 'Quick bite']",,,,,,,,,,,,,,,,,,,,,,,,,,,,,,,,,,
Krave Nutrition,http://www.facebook.com/KraveNutritionGB,,(920) 634-2400,"2465 Lineville Rd #6, Green Bay, WI 54313",,,,,,,44.589351199999996,-88.0798975,,,"['5.0  (3)', 'Health Food', 'Green Bay, WI', 'Closed ⋅ Opens 7AM', 'Dine-in', 'Takeout']",,,,,,,,,,,,,,,,,,,,,,,,,,,,,,,,,,
McDonald's,https://www.mcdonalds.com/us/en-us/location/WI/LUXEMBURG/408-CENTER-DR/24364.html?cid=RF:YXT:GMB::Clicks,,(920) 845-9446,"408 Center Dr, Luxemburg, WI 54217",,,,,,,44.5457344,-87.7039788,,,"['3.6  (198)', '$', 'Fast Food', 'Luxemburg, WI', 'Closed ⋅ Opens 5AM', 'Classic, long-running fast-food chain known for its burgers, fries & shakes.', 'Dine-in', 'Drive-through', 'Delivery']",,,,,,,,,,,,,,,,,,,,,,,,,,,,,,,,,,
Taco Bell,https://locations.tacobell.com/wi/de-pere/2409-monroe-rd.html?utm_source=yext&utm_campaign=googlelistings&utm_medium=referral&utm_term=020499&utm_content=website&y_source=1_NjE0NDkzOS03MTUtbG9jYXRpb24uZ29vZ2xlX3dlYnNpdGVfb3ZlcnJpZGU=,,,"2409 Monroe Rd, De Pere, WI 54115",,,,,,,44.4576019,-87.9900681,,,"['3.6  (338)', '$', 'Fast Food', 'De Pere, WI', 'Closed ⋅ Opens 7AM', 'Fast-food chain serving Mexican-inspired fare such as tacos, quesadillas & nachos.', 'Dine-in', 'Drive-through', 'Delivery']",,,,,,,,,,,,,,,,,,,,,,,,,,,,,,,,,,
Subway,https://order.subway.com/en-us/restaurant/58106/menu/?utm_source=yxt-goog&utm_medium=local&utm_term=acq&utm_content=58106&utm_campaign=evergreen-2020,,(920) 544-0752,"1007 W Mason St, Green Bay, WI 54303",,,,,,,44.515098699999996,-88.0402158,,,"['4.0  (51)', '$', 'Sandwich', 'Green Bay, WI', 'In Bay Shopping Center', 'Closed ⋅ Opens 9AM', 'Casual counter-serve chain for build-your-own sandwiches & salads, with health-conscious options.', 'Dine-in', 'Takeout', 'Delivery']",,,,,,,,,,,,,,,,,,,,,,,,,,,,,,,,,,
J&J cafe,http://jjcafegreenbay.com/,,(920) 455-0660,"803 Klaus St, Green Bay, WI 54302",,,,,,,44.524394199999996,-87.9984447,,,"['4.4  (45)', 'Diner', 'Green Bay, WI', 'Closed ⋅ Opens 6AM', '""I never been to your restaurant but I will someday.""', 'Dine-in', 'Takeout', 'No-contact delivery']",,,,,,,,,,,,,,,,,,,,,,,,,,,,,,,,,,
Skaliwags High Cotton Club,,,,"Green Bay, WI · In Skaliwags Burger Company",,,,,,,44.514463,-88.0144183,,,"['5.0  (8)', 'Restaurant', 'Green Bay, WI', 'In Skaliwags Burger Company', 'Closed ⋅ Opens 4:30PM', 'Comfort food', 'Casual', 'Groups']",,,,,,,,,,,,,,,,,,,,,,,,,,,,,,,,,,
Nuk's Thai Restaurant,,,,"1350 Marine St, Green Bay, WI 54301",,,,,,,44.495374399999996,-88.0222031,,,"['No reviews', 'Restaurant', 'Green Bay, WI', 'Comfort food', 'Small plates', 'Casual']",,,,,,,,,,,,,,,,,,,,,,,,,,,,,,,,,,
Taco Bell,https://locations.tacobell.com/wi/green-bay/2220-main-street.html?utm_source=yext&utm_campaign=googlelistings&utm_medium=referral&utm_term=031503&utm_content=website&y_source=1_NjE0NTExMi03MTUtbG9jYXRpb24uZ29vZ2xlX3dlYnNpdGVfb3ZlcnJpZGU=,,(920) 406-8150,"2220 Main St, Green Bay, WI 54302",,,,,,,44.4855265,-87.9718177,,,"['3.5  (512)', '$', 'Fast Food', 'Green Bay, WI', 'Closed ⋅ Opens 10AM', 'Fast-food chain serving Mexican-inspired fare such as tacos, quesadillas & nachos.', 'Dine-in', 'Drive-through', 'Delivery']",,,,,,,,,,,,,,,,,,,,,,,,,,,,,,,,,,
"Simple Simon's Pizza - Yates Center, KS (inside Pete's Convenience Store)",http://www.simplesimonspizza.com/,,(620) 625-2253,"301 S Fry St, Yates Center, KS 66783",,,,,,,37.8790726,-95.7394183,,,"['4.3  (6)', '$', 'Pizza', 'Yates Center, KS', 'Closed ⋅ Opens 10AM', 'A variety of pizzas, subs & calzones fills the menu at this easygoing Italian chain.']",,,,,,,,,,,,,,,,,,,,,,,,,,,,,,,,,,
Domino's Pizza,https://www.dominos.com/en/?redirect=homepage&utm_source=google&utm_medium=loclist&utm_campaign=localmaps,,(620) 820-2244,"2101 Main St, Parsons, KS 67357",,,,,,,37.340941699999995,-95.2670237,,,"['4.5  (85)', '$', 'Pizza Delivery', 'Parsons, KS', 'Closed ⋅ Opens 10:30AM', 'Delivery/carryout chain offering a wide range of pizzas & a variety of other dishes & sides.']",,,,,,,,,,,,,,,,,,,,,,,,,,,,,,,,,,
Subway,https://order.subway.com/en-us/restaurant/38046/menu/?utm_source=yxt-goog&utm_medium=local&utm_term=acq&utm_content=38046&utm_campaign=evergreen-2020,,(620) 431-1245,"2700 S Santa Fe Ave, Chanute, KS 66720",,,,,,,37.6540421,-95.45035829999999,,,"['4.1  (58)', '$', 'Sandwich', 'Chanute, KS', 'In Walmart Supercenter', 'Closed ⋅ Opens 9AM', 'Casual counter-serve chain for build-your-own sandwiches & salads, with health-conscious options.', 'Dine-in', 'Takeout', 'Delivery']",,,,,,,,,,,,,,,,,,,,,,,,,,,,,,,,,,
Q39 South,https://q39kc.com/,,(913) 951-4500,"11051 Antioch Rd, Overland Park, KS 66210",,,,,,,38.9287899,-94.68577239999999,,,"['4.6  (5,268)', '$$', 'Barbecue', 'Overland Park, KS', 'Closed ⋅ Opens 11AM', 'Dine-in', 'Curbside pickup', 'Delivery']",,,,,,,,,,,,,,,,,,,,,,,,,,,,,,,,,,
Q39 - Midtown,https://q39kc.com/,,(816) 255-3753,"1000 W 39th St, Kansas City, MO 64111",,,,,,,39.0574096,-94.5981365,,,"['4.7  (9,548)', '$$', 'Barbecue', 'Kansas City, MO', 'Closed ⋅ Opens 11AM', 'Hip, airy joint with beamed ceilings & exposed brick serving smoked BBQ & wood-fired meats.', 'Dine-in', 'Curbside pickup', 'Delivery']",,,,,,,,,,,,,,,,,,,,,,,,,,,,,,,,,,
McDonald's,https://www.mcdonalds.com/us/en-us/location/KS/PARSONS/301-N-16TH/31546.html?cid=RF:YXT:GMB::Clicks,,(620) 421-0244,"301 N 16th St, Parsons, KS 67357",,,,,,,37.342819299999995,-95.2586961,,,"['3.1  (802)', '$', 'Fast Food', 'Parsons, KS', 'Closed ⋅ Opens 5AM', 'Classic, long-running fast-food chain known for its burgers, fries & shakes.', 'Dine-in', 'Drive-through', 'Delivery']",,,,,,,,,,,,,,,,,,,,,,,,,,,,,,,,,,
Subway,https://order.subway.com/en-us/restaurant/17315/menu/?utm_source=yxt-goog&utm_medium=local&utm_term=acq&utm_content=17315&utm_campaign=evergreen-2020,,(620) 325-2282,"720 W Main St, Neodesha, KS 66757",,,,,,,37.417663,-95.68338849999999,,,"['4.1  (56)', '$', 'Sandwich', 'Neodesha, KS', 'Closed ⋅ Opens 10AM', 'Casual counter-serve chain for build-your-own sandwiches & salads, with health-conscious options.', 'Dine-in', 'Takeout', 'Delivery']",,,,,,,,,,,,,,,,,,,,,,,,,,,,,,,,,,
Stacy Cakes,http://www.stacycakeshumboldt.com/,,(620) 473-5035,"804 Bridge St, Humboldt, KS 66748",,,,,,,37.8113852,-95.4365174,,,"['4.8  (31)', '$', 'Bakery', 'Humboldt, KS', 'Closed ⋅ Opens 8:30AM', 'Delivery', 'Takeout']",,,,,,,,,,,,,,,,,,,,,,,,,,,,,,,,,,
Texas Roadhouse,https://www.texasroadhouse.com/,,,"Unnamed Road, Hot Springs, AR 71913",,,,,,,34.467228999999996,-93.0590313,,,"['4.6  (88)', '$$', 'Restaurant', 'Hot Springs, AR', 'Closed ⋅ Opens 4PM', 'Comfort food', 'Small plates', 'Great cocktails']",,,,,,,,,,,,,,,,,,,,,,,,,,,,,,,,,,
C J's Diner,,,(620) 717-4201,"3230 Main St, Parsons, KS 67357",,,,,,,37.3398086,-95.286867,,,"['4.3  (80)', '$', 'Diner', 'Parsons, KS', 'Temporarily closed']",,,,,,,,,,,,,,,,,,,,,,,,,,,,,,,,,,
Mai Lee,http://www.maileestl.com/,,(314) 645-2835,"8396 Musick Memorial Dr, Brentwood, MO 63144",,,,,,,38.6275,-90.33749999999999,,,"['4.6  (1,683)', '$$', 'Vietnamese', 'Brentwood, MO', 'Closed ⋅ Opens 11AM', 'Hearty portions of Vietnamese & Chinese staples served in a simple but cheerful setting.']",,,,,,,,,,,,,,,,,,,,,,,,,,,,,,,,,,
Club Car Restaurant & Lounge,http://www.clubcardining.com/,,(515) 226-1729,"13435 University Ave #200, Clive, IA 50325",,,,,,,41.6010689,-93.8033052,,,"['4.5  (444)', '$$', 'American', 'Clive, IA', 'In Lake Pointe', 'Closed ⋅ Opens 11AM', 'American eatery decorated with railroad memorabilia, original framed posters & a model train.']",,,,,,,,,,,,,,,,,,,,,,,,,,,,,,,,,,
Subway,https://order.subway.com/en-us/restaurant/63973/menu/?utm_source=yxt-goog&utm_medium=local&utm_term=acq&utm_content=63973&utm_campaign=evergreen-2020,,(620) 378-3000,"2400 ½, E Washington St, Fredonia, KS 66736",,,,,,,37.5291056,-95.8001288,,,"['3.8  (66)', '$', 'Sandwich', 'Fredonia, KS', 'Closed ⋅ Opens 9AM', 'Casual counter-serve chain for build-your-own sandwiches & salads, with health-conscious options.', 'Dine-in', 'Takeout', 'Delivery']",,,,,,,,,,,,,,,,,,,,,,,,,,,,,,,,,,
McDonald's,https://www.mcdonalds.com/us/en-us/location/KS/IOLA/312-W-MADISON/6912.html?cid=RF:YXT:GMB::Clicks,,(620) 365-7571,"312 W Madison Ave, Iola, KS 66749",,,,,,,37.9217029,-95.4086138,,,"['3.0  (646)', '$', 'Fast Food', 'Iola, KS', 'Closed ⋅ Opens 6AM', 'Classic, long-running fast-food chain known for its burgers, fries & shakes.']",,,,,,,,,,,,,,,,,,,,,,,,,,,,,,,,,,
Patti's 1880's Settlement,http://www.pattis1880s.com/,,(270) 362-8844,"1793 J H O'Bryan Ave, Grand Rivers, KY 42045",,,,,,,37.0023024,-88.23545,,,"['4.6  (2,485)', '$$', 'Fine Dining', 'Grand Rivers, KY', 'Closed ⋅ Opens 11AM', 'Homey staple for classic American eats, such as its famed 2-inch pork chops, plus pies for dessert.', 'Dine-in', 'Takeout', 'Delivery']",,,,,,,,,,,,,,,,,,,,,,,,,,,,,,,,,,
Intero Restaurant,http://www.interorestaurant.com/,,(512) 599-4052,"2612 E Cesar Chavez St Suite 105, Austin, TX 78702",,,,,,,30.2537,-97.71443,,,"['4.7  (303)', '$$', 'Italian', 'Austin, TX', 'Closed ⋅ Opens 5:30PM Thu', 'Sustainability focused farm-to-table Italian with pasta & artisanal chocolate on a rotational menu.', 'Dine-in', 'Curbside pickup', 'Delivery']",,,,,,,,,,,,,,,,,,,,,,,,,,,,,,,,,,
Mein Restaurant,http://www.eatmein.com/,,(713) 923-7488,"9630 Clarewood Dr Ste A13, Houston, TX 77036",,,,,,,29.707527499999998,-95.5500467,,,"['4.5  (859)', '$$', 'Cantonese', 'Houston, TX', 'Closed ⋅ Opens 11AM', 'Expansive destination for a range of Cantonese fare in a modern, art deco setting.', 'Dine-in', 'Takeout', 'Delivery']",,,,,,,,,,,,,,,,,,,,,,,,,,,,,,,,,,
1776 Restaurant,http://1776restaurant.com/,,(815) 356-1776,"397 W Virginia St, Crystal Lake, IL 60014",,,,,,,42.233423099999996,-88.3359143,,,"['4.6  (383)', '$$$', 'American', 'Crystal Lake, IL', 'Closed ⋅ Opens 4PM', 'New American haunt with a focus on wild game & gluten-free options plus tapas & a large wine list.', 'Dine-in', 'Takeout', 'Delivery']",,,,,,,,,,,,,,,,,,,,,,,,,,,,,,,,,,
Le Colonial Chicago,http://www.lecolonialchicago.com/,,(312) 255-0088,"57 E Oak St, Chicago, IL 60611",,,,,,,41.900522699999996,-87.6260999,,,"['4.5  (950)', '$$$', 'Vietnamese', 'Chicago, IL', 'Closed ⋅ Opens 12PM', 'Upscale French-Vietnamese fare in a Gold Coast row house with balcony seating & an outdoor patio.', 'Dine-in', 'Takeout', 'Delivery']",,,,,,,,,,,,,,,,,,,,,,,,,,,,,,,,,,
Chicago Pizza and Oven Grinder Company,http://www.chicagopizzaandovengrinder.com/,,(773) 248-2570,"2121 N Clark St, Chicago, IL 60614",,,,,,,41.920770999999995,-87.6373581,,,"['4.6  (3,991)', '$$', 'Pizza', 'Chicago, IL', 'Cash-only eatery in a historical brownstone serving its famous pizza-pot-pies plus grinders & more.', 'Dine-in', 'Takeout', 'Delivery']",,,,,,,,,,,,,,,,,,,,,,,,,,,,,,,,,,
Napoli Restaurant and Pizzeria,http://www.napoliburlington.com/,,(262) 763-8390,"132 N Pine St, Burlington, WI 53105",,,,,,,42.677341999999996,-88.274383,,,"['4.5  (443)', '$$', 'Southern Italian', 'Burlington, WI', 'Closed ⋅ Opens 11AM', 'Easygoing mainstay offering Chicago-style pizza & classic Italian fare, with wine & unique martinis.', 'Dine-in', 'Takeout', 'Delivery']",,,,,,,,,,,,,,,,,,,,,,,,,,,,,,,,,,
AJ Bombers,http://www.ajbombers.com/,,(414) 221-9999,"1247 N Water St, Milwaukee, WI 53202",,,,,,,43.046842399999996,-87.911345,,,"['4.4  (1,800)', '$$', 'Hamburger', 'Milwaukee, WI', 'Closed ⋅ Opens 11AM', 'Kitschy joint for burgers, beer & shelled peanuts where customers write on the wall with markers.', 'Dine-in', 'Curbside pickup', 'No-contact delivery']",,,,,,,,,,,,,,,,,,,,,,,,,,,,,,,,,,
The Allison Inn & Spa,https://www.theallison.com/,,(503) 554-2525,"2525 Allison Ln, Newberg, OR 97132",,,,,,,45.3196605,-122.9463119,,,"['4.7  (661)', 'Restaurant', 'Newberg, OR', 'High-end resort featuring serene rooms, plus regional dining, spa services & a wine cellar.']",,,,,,,,,,,,,,,,,,,,,,,,,,,,,,,,,,
The Dabney,http://thedabney.com/,,(202) 450-1015,"122 Blagden Alley NW, Washington, DC 20001",,,,,,,38.906283699999996,-77.0246047,,,"['4.8  (700)', '$$$', 'Restaurant', 'Washington, DC', 'Closed ⋅ Opens 4:30PM', 'Chef Jeremiah Langhorne serves Mid-Atlantic cuisine at this rustic spot set in a former row house.', 'Dine-in', 'Takeout', 'Delivery']",,,,,,,,,,,,,,,,,,,,,,,,,,,,,,,,,,
The Modern,https://www.themodernnyc.com/,,(212) 333-1220,"9 W 53rd St, New York, NY 10019",,,,,,,40.761081,-73.976753,,,"['4.7  (1,501)', '$$$$', 'New American', 'New York, NY', 'In the MoMA', 'Temporarily closed', 'French/New American fare in a modernist space with garden views at the Museum of Modern Art.']",,,,,,,,,,,,,,,,,,,,,,,,,,,,,,,,,,
Gordon Ramsay Hell's Kitchen,https://www.caesars.com/caesars-palace/restaurants/hells-kitchen?utm_campaign=GMB&utm_source=google&utm_medium=local&utm_term=HellsKitchen&utm_content=Restaurant,,(702) 731-7373,"3570 Las Vegas Blvd S, Las Vegas, NV 89109",,,,,,,36.1161725,-115.1730053,,,"['4.4  (3,813)', '$$$', 'American', 'Las Vegas, NV', 'In Caesars Palace', 'Closed ⋅ Opens 4PM', 'Gordon Ramsay concept at Caesar’s Palace with decor & dishes inspired by its namesake TV show.', 'Dine-in', 'Takeout', 'Delivery']",,,,,,,,,,,,,,,,,,,,,,,,,,,,,,,,,,
Amigo Mexican Restaurant,http://www.amigorestaurantonline.com/,,(423) 624-4345,"3805 Ringgold Rd, East Ridge, TN 37412",,,,,,,34.9999481,-85.25660239999999,,,"['4.5  (1,500)', '$', 'Mexican', 'East Ridge, TN', 'Closed ⋅ Opens 11AM', 'Local Mexican chain serving a menu of classic dishes & margaritas in a relaxed setting.', 'Dine-in', 'Takeout', 'Delivery']",,,,,,,,,,,,,,,,,,,,,,,,,,,,,,,,,,
The New York Restaurant,http://www.thenewyork.com/,,(231) 526-1904,"101 State St, Harbor Springs, MI 49740",,,,,,,45.429070599999996,-84.988873,,,"['4.5  (130)', '$$', 'Eclectic', 'Harbor Springs, MI', 'Closed ⋅ Opens 5PM', 'Locally sourced American cuisine & an ample wine list presented in an elegant historic venue.', 'Dine-in', 'Takeout', 'Delivery']",,,,,,,,,,,,,,,,,,,,,,,,,,,,,,,,,,
Rubirosa Ristorante,http://rubirosanyc.com/,,(212) 965-0500,"235 Mulberry St, New York, NY 10012",,,,,,,40.7227471,-73.9962025,,,"['4.6  (2,375)', '$$', 'Italian', 'New York, NY', 'Closed ⋅ Opens 12PM', 'Neighborhood Italian spot serving reinvented Italian-American classics & pizzas in a dark space.', 'Dine-in', 'Takeout', 'Delivery']",,,,,,,,,,,,,,,,,,,,,,,,,,,,,,,,,,
The Hangout Gulf Shores,https://www.thehangout.com/,,(251) 948-3030,"101 E Beach Blvd, Gulf Shores, AL 36542",,,,,,,30.2481175,-87.68921519999999,,,"['4.3  (7,275)', '$$', 'Seafood', 'Gulf Shores, AL', 'Closed ⋅ Opens 8AM', 'Colorful beach pick known for its oyster cook-off, live music & party vibe in an open-air space.', 'Dine-in', 'Takeout', 'Delivery']",,,,,,,,,,,,,,,,,,,,,,,,,,,,,,,,,,
Flancer's,http://www.flancers.com/,,(480) 926-9077,"610 N Gilbert Rd, Gilbert, AZ 85234",,,,,,,33.360831,-111.79005699999999,,,"['4.5  (719)', '$$', 'American', 'Gilbert, AZ', 'In Fountain Plaza', 'Closed ⋅ Opens 10:30AM', 'Pizzas & burgers plus sandwiches made on homemade bread are offered at this homey, dinerlike eatery.', 'Dine-in', 'Takeout', 'No-contact delivery']",,,,,,,,,,,,,,,,,,,,,,,,,,,,,,,,,,
Hillstone,http://hillstonerestaurant.com/locations/nyc-midtown/,,(212) 888-3828,"888 3rd Ave, New York, NY 10022",,,,,,,40.7582871,-73.9692211,,,"['4.6  (1,025)', '$$$', 'American', 'New York, NY', 'Closed ⋅ Opens 11:30AM', 'Upscale chain eatery featuring steak, seafood & pasta alongside specialty cocktails.', 'Dine-in', 'Takeout', 'Delivery']",,,,,,,,,,,,,,,,,,,,,,,,,,,,,,,,,,
Mar Vista Dockside Restaurant,https://www.marvistadining.com/,,(941) 383-2391,"760 Broadway St, Longboat Key, FL 34228",,,,,,,27.437856699999998,-82.6813288,,,"['4.4  (1,337)', '$$', 'Seafood', 'Longboat Key, FL', 'Closed ⋅ Opens 12PM', 'Rustic seafood spot in an early-1900s beach house with an Old Florida vibe & patio views.', 'Dine-in', 'Takeout', 'Delivery']",,,,,,,,,,,,,,,,,,,,,,,,,,,,,,,,,,
Steinhilber's,http://www.steinys.com/,,(757) 340-1156,"653 Thalia Rd, Virginia Beach, VA 23452",,,,,,,36.8563729,-76.12003779999999,,,"['4.6  (842)', '$$$$', 'Seafood', 'Virginia Beach, VA', 'Closed ⋅ Opens 11AM', 'American dining & cocktails in a rustic 1939 building with a heated patio & old-school vibe.', 'Dine-in', 'Curbside pickup']",,,,,,,,,,,,,,,,,,,,,,,,,,,,,,,,,,
China Chilcano,http://chinachilcano.com/,,(202) 783-0941,"418 7th St NW, Washington, DC 20004",,,,,,,38.8953418,-77.0220842,,,"['4.4  (2,181)', '$$', 'Peruvian', 'Washington, DC', 'Temporarily closed', ""José Andrés' festive eatery showcases Peruvian fare with Asian & Spanish accents & pisco cocktails.""]",,,,,,,,,,,,,,,,,,,,,,,,,,,,,,,,,,
Red Robin Gourmet Burgers and Brews,https://www.redrobin.com/,,,"2669 Campus Dr, Plymouth, MN 55441",,,,,,,45.0086212,-93.4496147,,,"['4.1  (1,793)', '$$', 'Restaurant', 'Plymouth, MN', 'Closed ⋅ Opens 11AM', 'Chain for gourmet burgers & other American comfort fare.', 'Dine-in', 'Takeout', 'Delivery']",,,,,,,,,,,,,,,,,,,,,,,,,,,,,,,,,,
Hale's Restaurant,,,(540) 268-9809,"7643 Roanoke Rd, Shawsville, VA 24162",,,,,,,37.1728611,-80.2407346,,,"['4.5  (210)', '$', 'American', 'Shawsville, VA', 'Closed ⋅ Opens 7AM', 'Comfort food', 'Small plates', 'Quick bite']",,,,,,,,,,,,,,,,,,,,,,,,,,,,,,,,,,
Rose Hill Restaurant,http://www.rosehillrest.com/,,(910) 289-2151,"312 N Sycamore St, Rose Hill, NC 28458",,,,,,,34.828891999999996,-78.02294599999999,,,"['4.4  (383)', '$$', 'Family-friendly', 'Rose Hill, NC', 'Closed ⋅ Opens 11AM', 'Dine-in', 'Takeout', 'Delivery']",,,,,,,,,,,,,,,,,,,,,,,,,,,,,,,,,,
Somni,https://www.exploretock.com/somni/,,(310) 246-5543,"465 La Cienega Blvd, Los Angeles, CA 90048",,,,,,,34.070043999999996,-118.376815,,,"['4.8  (77)', 'Restaurant', 'Los Angeles, CA', 'Closed ⋅ Opens 6PM Sat', 'A tasting-menu only eatery by José Andrés and his team at the SLS Hotel in Beverly Hills.', 'Dine-in', 'Delivery']",,,,,,,,,,,,,,,,,,,,,,,,,,,,,,,,,,
Felix Trattoria,http://felixla.com/,,(424) 387-8622,"1023 Abbot Kinney Blvd, Venice, CA 90291",,,,,,,33.9922429,-118.47186579999999,,,"['4.6  (728)', '$$$$', 'Italian', 'Venice, CA', 'Closed ⋅ Opens 5:30PM', 'Evan Funke’s take on traditional Italian cuisine, with pasta made on sight, right before your eyes.', 'Dine-in', 'Takeout', 'Delivery']",,,,,,,,,,,,,,,,,,,,,,,,,,,,,,,,,,
Manero's Restaurant,https://maneros.com/,,(772) 220-3011,"2851 SW High Meadow Ave, Palm City, FL 34990",,,,,,,27.170391,-80.2932429,,,"['4.5  (394)', '$$', 'Restaurant', 'Palm City, FL', 'Closed ⋅ Opens 11:30AM', 'Steak, shrimp cocktail & other American classics draw locals to this relaxed eatery.']",,,,,,,,,,,,,,,,,,,,,,,,,,,,,,,,,,
Side Bar & Restaurant,https://sidebarandrestaurant.com/,,(610) 429-8297,"10 E Gay St, West Chester, PA 19380",,,,,,,39.960597299999996,-75.6046683,,,"['4.4  (411)', '$$', 'Restaurant', 'West Chester, PA', 'Closed ⋅ Opens 4PM', 'Traditional American fare accompanies 3 bars & seasonal patio seating in a relaxed space.', 'Dine-in', 'Curbside pickup', 'Delivery']",,,,,,,,,,,,,,,,,,,,,,,,,,,,,,,,,,
McArdle's Restaurant,https://www.mcardlesfairport.com/,,(585) 377-5520,"1355 Fairport Rd, Fairport, NY 14450",,,,,,,43.100536,-77.459839,,,"['4.5  (554)', '$$', 'American', 'Fairport, NY', 'Closed ⋅ Opens 11:30AM', 'Down-to-earth Irish pub & grill offering traditional comfort eats in a warm, old-timey interior.', 'Dine-in', 'Curbside pickup', 'No-contact delivery']",,,,,,,,,,,,,,,,,,,,,,,,,,,,,,,,,,
Shooters Waterfront,https://www.shooterswaterfront.com/?utm_source=google&utm_medium=organic&utm_campaign=business_listing,,(954) 566-2855,"3033 NE 32nd Ave, Fort Lauderdale, FL 33308",,,,,,,26.1660456,-80.1034533,,,"['4.4  (5,148)', '$$', 'American', 'Fort Lauderdale, FL', 'Closed ⋅ Opens 11AM', 'Laid-back spot on the Intracoastal Waterway offering food, drinks, live music & water views.', 'Dine-in', 'Curbside pickup', 'No-contact delivery']",,,,,,,,,,,,,,,,,,,,,,,,,,,,,,,,,,
Craft,http://www.craftrestaurant.com/,,(212) 780-0880,"43 E 19th St, New York, NY 10003",,,,,,,40.7381658,-73.9886678,,,"['4.5  (680)', '$$$', 'Fine Dining', 'New York, NY', 'Closed ⋅ Opens 5PM', ""Chef Tom Colicchio's refined, farm-fresh American fare served in an elegantly understated space."", 'Dine-in', 'Curbside pickup', 'No-contact delivery']",,,,,,,,,,,,,,,,,,,,,,,,,,,,,,,,,,
Lin's Asian Cuisine,http://www.linsasianfl.com/,,(850) 424-5888,"130 Scenic Gulf Dr Suite #5B, Miramar Beach, FL 32550",,,,,,,30.376481,-86.3509364,,,"['4.3  (229)', '$', 'Chinese', 'Miramar Beach, FL', 'Closed ⋅ Opens 10:30AM', 'Low-key strip-mall spot offering a large selection of Chinese & Thai staples, plus lunch specials.', 'Dine-in', 'Takeout', 'Delivery']",,,,,,,,,,,,,,,,,,,,,,,,,,,,,,,,,,
Hale's Restaurant,,,(540) 268-9809,"7643 Roanoke Rd, Shawsville, VA 24162",,,,,,,37.1728611,-80.2407346,,,"['4.5  (210)', '$', 'American', 'Shawsville, VA', 'Closed ⋅ Opens 7AM', 'Comfort food', 'Small plates', 'Quick bite']",,,,,,,,,,,,,,,,,,,,,,,,,,,,,,,,,,
El Golfo Restaurant,http://www.elgolforestaurant.com/,,(301) 608-2121,"8739 Flower Ave, Silver Spring, MD 20901",,,,,,,38.9993567,-77.00352339999999,,,"['4.4  (378)', '$$', 'Pan-Latin restaurant', 'Silver Spring, MD', 'In Flower Barber Shop', 'Closed ⋅ Opens 11AM', 'Family-owned Pan-Latin spot serving steaks, seafood, vegan dishes & drinks in a colorful space.', 'Dine-in', 'Takeout', 'No-contact delivery']",,,,,,,,,,,,,,,,,,,,,,,,,,,,,,,,,,
Seasons 52,https://www.seasons52.com/locations/ca/san-diego/san-diego-utc/4529?cmpid=br:s52_ag:ie_ch:loc_ca:S52GMB_dt:20190131_sn:gmb_gt:san-diego-ca-4529_pl:locurl_rd:1027,,(858) 450-1252,"4505 La Jolla Village Dr, San Diego, CA 92122",,,,,,,32.8714581,-117.2097943,,,"['4.4  (792)', '$$', 'New American', 'San Diego, CA', 'In Westfield UTC', 'Closed ⋅ Opens 11AM', 'Rotating menu of seasonal American dishes alongside international wines in an upscale setting.', 'Dine-in', 'Curbside pickup', 'Delivery']",,,,,,,,,,,,,,,,,,,,,,,,,,,,,,,,,,
Bodhi Kosher Vegetarian Restaurant,http://www.buddhavegetarian.com/,,(212) 233-2921,"77 Mulberry St, New York, NY 10013",,,,,,,40.716386299999996,-73.9992785,,,"['4.6  (906)', '$', 'Kosher', 'New York, NY', 'Closed ⋅ Opens 11AM', 'Vegan interpretations of classic Chinese dishes are featured at this kosher joint with a warm vibe.', 'Dine-in', 'Takeout', 'No-contact delivery']",,,,,,,,,,,,,,,,,,,,,,,,,,,,,,,,,,
Union Jack Pub & Restaurant,https://theunionjackpub.com/,,(540) 722-2055,"101 N Loudoun St, Winchester, VA 22601",,,,,,,39.184750199999996,-78.16549499999999,,,"['4.3  (618)', '$$', 'Restaurant', 'Winchester, VA', 'Closed ⋅ Opens 11AM', 'British-style hangout offers an impressive beer list & English pub grub in a warm setting.', 'Dine-in', 'Takeout', 'Delivery']",,,,,,,,,,,,,,,,,,,,,,,,,,,,,,,,,,
Redbird,http://www.redbirdatl.com/,,(404) 900-5172,"Atlanta, GA · In Westside Provisions District",,,,,,,33.7867658,-84.4122192,,,"['4.5  (78)', 'Restaurant', 'Atlanta, GA', 'In Westside Provisions District', 'Closed ⋅ Opens 5PM', 'Dine-in', 'Curbside pickup']",,,,,,,,,,,,,,,,,,,,,,,,,,,,,,,,,,
Raclette,http://raclette.nyc/,,(917) 997-7306,"511 E 12th St, New York, NY 10009",,,,,,,40.728926099999995,-73.9806299,,,"['4.5  (1,803)', '$$', 'Raclette restaurant', 'New York, NY', 'Closed ⋅ Opens 5PM', 'Rustic-chic eatery offering upscale grilled cheese sandwiches, tartines & international raclettes.', 'Dine-in', 'Curbside pickup', 'No-contact delivery']",,,,,,,,,,,,,,,,,,,,,,,,,,,,,,,,,,
Subway,https://order.subway.com/en-us/restaurant/36440/menu/?utm_source=yxt-goog&utm_medium=local&utm_term=acq&utm_content=36440&utm_campaign=evergreen-2020,,(620) 421-0677,"2010 Main St, Parsons, KS 67357",,,,,,,37.3402612,-95.26690149999999,,,"['3.7  (37)', '$', 'Sandwich', 'Parsons, KS', 'Closed ⋅ Opens 10AM', 'Casual counter-serve chain for build-your-own sandwiches & salads, with health-conscious options.', 'Dine-in', 'Takeout', 'Delivery']",,,,,,,,,,,,,,,,,,,,,,,,,,,,,,,,,,
Animae,https://animaesd.com/,,(619) 432-1225,"969 Pacific Hwy, San Diego, CA 92101",,,,,,,32.715192099999996,-117.170739,,,"['4.5  (68)', 'Restaurant', 'San Diego, CA', 'Closed ⋅ Opens 5:30PM', 'Dine-in', 'Takeout', 'Delivery']",,,,,,,,,,,,,,,,,,,,,,,,,,,,,,,,,,
Golden Buddha Restaurant,http://www.goldenbuddhaga.com/,,(404) 633-5252,"1905 Clairmont Rd, Decatur, GA 30033",,,,,,,33.810210999999995,-84.3084015,,,"['4.3  (1,198)', '$$', 'Chinese', 'Decatur, GA', 'Closed ⋅ Opens 11:30AM', 'Familiar Chinese fare such as sesame chicken plus spicy Sichuan dishes in casual dinerlike digs.', 'Dine-in', 'Takeout', 'No-contact delivery']",,,,,,,,,,,,,,,,,,,,,,,,,,,,,,,,,,
Taco María,http://www.tacomaria.com/,,(714) 538-8444,"3313 Hyland Ave, Costa Mesa, CA 92626",,,,,,,33.694713899999996,-117.9257667,,,"['4.6  (444)', '$$$', 'Mexican', 'Costa Mesa, CA', 'In SoCo Collection', 'Locally sourced Californian-Mexican fare in casual, open-kitchen quarters with a patio.', 'Dine-in', 'Takeout', 'Delivery']",,,,,,,,,,,,,,,,,,,,,,,,,,,,,,,,,,
The Lady and Sons,http://www.ladyandsons.com/,,(912) 233-2600,"102 W Congress St, Savannah, GA 31401",,,,,,,32.0800786,-81.09286259999999,,,"['4.1  (5,720)', '$$', 'American', 'Savannah, GA', 'Temporarily closed', 'Easygoing eatery from Paula Deen featuring Southern classics like fried chicken, plus a buffet.']",,,,,,,,,,,,,,,,,,,,,,,,,,,,,,,,,,
Buffalo Rose,http://www.buffalorosegolden.com/,,(720) 638-5597,"1119 Washington Ave, Golden, CO 80401",,,,,,,39.7555542,-105.2213244,,,"['3.9  (863)', '$$', 'Restaurant', 'Golden, CO', 'Closed ⋅ Opens 11AM', 'Bar & grill dating back to 1858 featuring live entertainment inside on the stage or on the patio.', 'Dine-in', 'Takeout', 'Delivery']",,,,,,,,,,,,,,,,,,,,,,,,,,,,,,,,,,
Sunset Restaurant & Lounge,http://www.sunsetrestaurant.com/,,(410) 768-1417,"625 Greenway Rd SE, Glen Burnie, MD 21061",,,,,,,39.153665499999995,-76.6182231,,,"['4.1  (912)', '$$', 'American', 'Glen Burnie, MD', 'Closed ⋅ Opens 11AM', 'Italian fare with seafood specialties is served at this old-school (since 1960) eatery & lounge.', 'Dine-in', 'Curbside pickup', 'Delivery']",,,,,,,,,,,,,,,,,,,,,,,,,,,,,,,,,,
Margaritaville Resort Biloxi,https://www.margaritavilleresortbiloxi.com/,,(228) 271-6377,"195 Beach Blvd, Biloxi, MS 39530",,,,,,,30.3911788,-88.8628737,,,"['4.2  (5,605)', 'Bar', 'Biloxi, MS', 'Chic quarters in a waterfront resort with live entertainment & dining, plus an outdoor pool complex.']",,,,,,,,,,,,,,,,,,,,,,,,,,,,,,,,,,
Jaime's Restaurant,http://www.jaimesna.com/,,,"25 High St, North Andover, MA 01845",,,,,,,42.7014377,-71.1251048,,,"['4.5  (310)', '$$', 'Grill', 'North Andover, MA', 'Closed ⋅ Opens 11:30AM', 'Spacious, contemporary eatery with a lively bar scene offering a big menu of eclectic comfort fare.']",,,,,,,,,,,,,,,,,,,,,,,,,,,,,,,,,,
Wasabi Japanese Restaurant,,,(904) 696-7270,"Jacksonville, FL · In River City Marketplace",,,,,,,30.4798552,-81.6385348,,,"['4.1  (297)', '$$', 'Japanese', 'Jacksonville, FL', 'In River City Marketplace', 'Closed ⋅ Opens 11AM', 'Modern hibachi house & sushi bar with a large menu featuring familiar rolls, sashimi & cooked fare.']",,,,,,,,,,,,,,,,,,,,,,,,,,,,,,,,,,
H.T. Grill,http://www.htgrill.com/,,(310) 791-4849,"1701 S Catalina Ave, Redondo Beach, CA 90277",,,,,,,33.8190026,-118.38850679999999,,,"['4.4  (452)', '$$', 'New American', 'Redondo Beach, CA', 'Closes soon ⋅ 1AM', 'Traditional fine dining, weekend champagne brunch & a full bar in stylish, upscale lodge environs.', 'Dine-in', 'Curbside pickup', 'Delivery']",,,,,,,,,,,,,,,,,,,,,,,,,,,,,,,,,,
Calexico,http://www.calexico.com/,,(718) 488-8226,"122 Union St, Brooklyn, NY 11231",,,,,,,40.684146999999996,-74.0025509,,,"['4.3  (243)', '$', 'Mexican', 'Brooklyn, NY', 'Closed ⋅ Opens 12PM', 'Simple Mexican tacos, burritos & quesadillas plus booze served amid border-town decor.', 'Dine-in', 'Takeout', 'Delivery']",,,,,,,,,,,,,,,,,,,,,,,,,,,,,,,,,,
Lucca,https://www.luccarestaurant.com/,,(916) 669-5300,"1615 J St, Sacramento, CA 95814",,,,,,,38.5780885,-121.4844911,,,"['4.5  (1,030)', '$$', 'Mediterranean', 'Sacramento, CA', 'Temporarily closed', 'Mediterranean & Californian cuisines meet at this relaxed, airy spot with an exposed-brick interior.']",,,,,,,,,,,,,,,,,,,,,,,,,,,,,,,,,,
Otto Enoteca Pizzeria,https://ny.ottopizzeria.com/,,(212) 995-9559,"New York, NY · In One Fifth Avenue Apartment",,,,,,,40.731991,-73.996223,,,"['4.1  (1,309)', '$$', 'Pizza', 'New York, NY', 'In One Fifth Avenue Apartment', 'Temporarily closed', 'Bustling, gourmet pizzeria & wine bar from Joe Bastianich with Italian train station decor.']",,,,,,,,,,,,,,,,,,,,,,,,,,,,,,,,,,
Goldenrod Restaurant,http://www.goldenrodrestaurant.com/,,(603) 623-9469,"1681 Candia Rd, Manchester, NH 03109",,,,,,,42.996604,-71.40097999999999,,,"['4.5  (1,584)', '$', 'Seafood', 'Manchester, NH', 'Closed ⋅ Opens 11AM', 'Established diner with a 1950s vibe known for fried seafood, chicken tenders, burgers & ice cream.', 'Dine-in', 'Takeout', 'Delivery']",,,,,,,,,,,,,,,,,,,,,,,,,,,,,,,,,,
Wood Tavern,http://www.woodtavern.net/,,(510) 654-6607,"6317 College Ave, Oakland, CA 94618",,,,,,,37.8506259,-122.25262239999999,,,"['4.6  (589)', '$$$', 'Californian', 'Oakland, CA', 'Closed ⋅ Opens 11:30AM', 'Californian-inspired menu of sustainable fare plus wine in a modern-rustic setting.']",,,,,,,,,,,,,,,,,,,,,,,,,,,,,,,,,,
Lamia's Fish Market,http://lamiasfishmarketny.com/,,(212) 777-3650,"47 Avenue B, New York, NY 10009",,,,,,,40.7229625,-73.9825102,,,"['4.1  (172)', 'Seafood', 'New York, NY', 'Closed ⋅ Opens 4PM', 'A fish-forward menu is served in a vibrant setting with nautical accents & raw fish on beds of ice.', 'Dine-in', 'Takeout', 'No-contact delivery']",,,,,,,,,,,,,,,,,,,,,,,,,,,,,,,,,,
Subway,https://order.subway.com/en-us/restaurant/13237/menu/?utm_source=yxt-goog&utm_medium=local&utm_term=acq&utm_content=13237&utm_campaign=evergreen-2020,,(620) 421-0999,"3201 N 16th St, Parsons, KS 67357",,,,,,,37.371859,-95.2553559,,,"['3.6  (35)', '$', 'Sandwich', 'Parsons, KS', 'In Walmart Supercenter', 'Closed ⋅ Opens 9AM', 'Casual counter-serve chain for build-your-own sandwiches & salads, with health-conscious options.', 'Dine-in', 'Takeout', 'Delivery']",,,,,,,,,,,,,,,,,,,,,,,,,,,,,,,,,,
99 Restaurants,http://www.99restaurants.com/,,(603) 356-9909,"1920 White Mountain Highway, NH-16, North Conway, NH 03860",,,,,,,44.0316872,-71.1208266,,,"['4.2  (903)', '$$', 'Restaurant', 'North Conway, NH', 'Closed ⋅ Opens 11AM', 'Kid-friendly pub chain for classic American fare like burgers, wings & salads.', 'Dine-in', 'Takeout', 'Delivery']",,,,,,,,,,,,,,,,,,,,,,,,,,,,,,,,,,
Ebisu Restaurant,https://ebisusushi.com/,,(415) 566-1770,"1283 9th Ave, San Francisco, CA 94122",,,,,,,37.7644418,-122.46651329999999,,,"['4.6  (835)', '$$', 'Japanese', 'San Francisco, CA', 'Closed ⋅ Opens 11AM', 'Long-standing Japanese eatery serving sushi & classic entrees in a cozy, streamlined setting.', 'Dine-in', 'Takeout', 'Delivery']",,,,,,,,,,,,,,,,,,,,,,,,,,,,,,,,,,
99 Restaurants,http://www.99restaurants.com/,,(207) 283-9999,"444 Alfred St, Biddeford, ME 04005",,,,,,,43.4817591,-70.4793438,,,"['4.3  (601)', '$$', 'Restaurant', 'Biddeford, ME', 'In Five Points Shopping Center', 'Closed ⋅ Opens 11AM', 'Kid-friendly pub chain for classic American fare like burgers, wings & salads.', 'Dine-in', 'Curbside pickup', 'Delivery']",,,,,,,,,,,,,,,,,,,,,,,,,,,,,,,,,,
Lee's Bakery,,,(404) 728-1008,"4005 Buford Hwy NE, Atlanta, GA 30345",,,,,,,33.8600364,-84.30891369999999,,,"['4.7  (1,156)', '$', 'Restaurant', 'Atlanta, GA', 'In Centro Comercial Buford Highway', 'Closed ⋅ Opens 8AM', 'Lively Vietnamese eatery known for its banh mi sandwiches serving dishes such as pho & spring rolls.', 'Dine-in', 'Takeout', 'No-contact delivery']",,,,,,,,,,,,,,,,,,,,,,,,,,,,,,,,,,
Paris Las Vegas,https://www.caesars.com/paris-las-vegas?utm_campaign=GMB&utm_source=google&utm_medium=local&utm_term=ParisLasVegas&utm_content=Hotel,,(877) 796-2096,"3655 S Las Vegas Blvd, Las Vegas, NV 89109",,,,,,,36.1125414,-115.1706705,,,"['4.4  (46,818)', 'Hotel', 'Las Vegas, NV', 'Chic property with a half-size Eiffel Tower & a Paris-inspired street, plus a pool & a casino.']",,,,,,,,,,,,,,,,,,,,,,,,,,,,,,,,,,
Sarita's Mac And Cheese,http://www.eatsmac.com/,,(212) 358-7912,"197 1st Avenue, New York, NY 10003",,,,,,,40.730212,-73.983724,,,"['4.5  (89)', 'American', 'New York, NY', 'Closed ⋅ Opens 11AM', 'Dine-in', 'Takeout']",,,,,,,,,,,,,,,,,,,,,,,,,,,,,,,,,,
True Food Kitchen,https://www.truefoodkitchen.com/locations/walnutcreek?utm_source=GMBlisting&utm_medium=organic&utm_content=website,,(925) 952-7314,"120 Broadway Ln bldg 1044, Walnut Creek, CA 94596",,,,,,,37.895354,-122.056936,,,"['4.4  (587)', '$$', 'Health Food', 'Walnut Creek, CA', 'In Broadway Plaza', 'Closed ⋅ Opens 11AM', 'Relaxed, eco-chic chain serving health-conscious fare, including vegan options, plus cocktails.', 'Dine-in', 'Takeout', 'Delivery']",,,,,,,,,,,,,,,,,,,,,,,,,,,,,,,,,,
Bruno's Restaurant and Tavern,http://www.brunosportland.com/,,(207) 878-9511,"33 Allen Ave, Portland, ME 04103",,,,,,,43.6893142,-70.292896,,,"['4.4  (612)', '$$', 'Italian', 'Portland, ME', 'Temporarily closed', 'Casual restaurant serving Italian favorites including housemade pasta has an attached sports bar.']",,,,,,,,,,,,,,,,,,,,,,,,,,,,,,,,,,
Sweet Basil,https://www.sweetbasilqueensbury.com/,,(518) 792-5300,"1012 U.S. 9, Queensbury, NY 12804",,,,,,,43.3422317,-73.68312829999999,,,"['4.0  (293)', '$$', 'Italian', 'Queensbury, NY', 'Closed ⋅ Opens 12PM', 'Dine-in', 'Takeout', 'No-contact delivery']",,,,,,,,,,,,,,,,,,,,,,,,,,,,,,,,,,
Cedars in University District,http://cedarsseattle.com/,,(206) 527-4000,"4759 Brooklyn Ave NE, Seattle, WA 98105",,,,,,,47.6647414,-122.31449239999999,,,"['4.3  (834)', '$$', 'Indian', 'Seattle, WA', 'Closed ⋅ Opens 11AM', 'Casual eatery offering classic Indian & Mediterranean dishes in a homey setting.', 'Dine-in', 'Curbside pickup', 'No-contact delivery']",,,,,,,,,,,,,,,,,,,,,,,,,,,,,,,,,,
Bastille Cafe & Bar,http://www.bastilleseattle.com/,,(206) 453-5014,"5307 Ballard Ave NW, Seattle, WA 98107",,,,,,,47.666436999999995,-122.38366599999999,,,"['4.4  (942)', '$$$', 'French', 'Seattle, WA', 'Temporarily closed', 'Stylish French bistro & bar with seasonal menus, vintage decor & a rooftop produce & herb garden.']",,,,,,,,,,,,,,,,,,,,,,,,,,,,,,,,,,
JuneBaby,https://www.junebabyseattle.com/,,(206) 257-4470,"2122 NE 65th St, Seattle, WA 98115",,,,,,,47.675965999999995,-122.304181,,,"['4.5  (980)', '$$$', 'Southern', 'Seattle, WA', 'Closed ⋅ Opens 5PM', 'Classic Southern fare made with heirloom ingredients is served in a stylish locale with cocktails.', 'Dine-in', 'Takeout', 'Delivery']",,,,,,,,,,,,,,,,,,,,,,,,,,,,,,,,,,
Stoneburner,http://stoneburnerseattle.com/,,(206) 695-2051,"5214 Ballard Ave NW, Seattle, WA 98107",,,,,,,47.6662056,-122.3826333,,,"['4.4  (619)', '$$', 'Mediterranean', 'Seattle, WA', 'Closed ⋅ Opens 4PM', 'Dramatic, wood-paneled restaurant in the Hotel Ballard serves Mediterranean fare & trendy cocktails.', 'Dine-in', 'Takeout', 'Delivery']",,,,,,,,,,,,,,,,,,,,,,,,,,,,,,,,,,
Afternoon Tea at Fairmont Olympic Hotel,https://www.fairmont.com/seattle/dining/thegeorgiantea/?y_source=1_MTU2Mzc2NTMtNzE1LWxvY2F0aW9uLndlYnNpdGU=,,,"411 University St, Seattle, WA 98101",,,,,,,47.6081064,-122.33398439999999,,,"['3.0  (1)', 'Restaurant', 'Seattle, WA', 'Dine-in', 'Delivery']",,,,,,,,,,,,,,,,,,,,,,,,,,,,,,,,,,
Copacabana Restaurant,https://www.pikeplacecopa.com/,,(206) 622-6359,"1520 1/2 Pike Pl, Seattle, WA 98101",,,,,,,47.6093281,-122.3413286,,,"['3.6  (138)', '$$', 'South American', 'Seattle, WA', 'Closed ⋅ Opens 11:30AM', ""Bolivian Pike Place Market veteran in a casual, second-story space that's prime for people-watching."", 'Dine-in', 'Curbside pickup', 'No-contact delivery']",,,,,,,,,,,,,,,,,,,,,,,,,,,,,,,,,,
Piatti,http://seattle.piatti.com/,,(206) 524-9088,"2695 NE Village Ln, Seattle, WA 98105",,,,,,,47.662216699999995,-122.2979556,,,"['4.1  (356)', '$$$', 'Italian', 'Seattle, WA', 'Closed ⋅ Opens 11:30AM', 'Traditional Italian trattoria with an open kitchen & pizzas from a stone-hearth oven.', 'Dine-in', 'Curbside pickup', 'No-contact delivery']",,,,,,,,,,,,,,,,,,,,,,,,,,,,,,,,,,
Marine Hardware,http://www.ethanstowellrestaurants.com/locations/marine-hardware,,(206) 257-4390,"4741 Ballard Ave NW, Seattle, WA 98107",,,,,,,47.6635886,-122.3800658,,,"['4.6  (96)', '$$$', 'Italian', 'Seattle, WA', 'Closed ⋅ Opens 4PM', 'Intimate Ethan Stowell spot offering sophisticated New American small plates & tasting menus.']",,,,,,,,,,,,,,,,,,,,,,,,,,,,,,,,,,
Rosebud Restaurant & Bar,,,(206) 323-6636,"719 Pike St, Seattle, WA 98122",,,,,,,47.6139114,-122.3225712,,,"['3.0  (1)', '$', 'Restaurant', 'Seattle, WA', 'Cozy', 'Casual', 'Groups']",,,,,,,,,,,,,,,,,,,,,,,,,,,,,,,,,,
U:Don - University District Fresh Japanese Noodle Station,http://freshudon.com/,,(206) 453-3788,"4515 The Ave, Seattle, WA 98105",,,,,,,47.6617673,-122.31340349999999,,,"['4.4  (714)', '$', 'Udon noodle restaurant', 'Seattle, WA', 'Closed ⋅ Opens 11AM', 'Self-serve destination offering traditional Japanese noodle dishes in an informal environment.', 'Dine-in', 'Takeout', 'No-contact delivery']",,,,,,,,,,,,,,,,,,,,,,,,,,,,,,,,,,
Dang Dang Restaurant,,,(206) 328-3264,"1221 S Main St, Seattle, WA 98144",,,,,,,47.5997059,-122.3161564,,,"['5.0  (1)', 'Restaurant', 'Seattle, WA', 'Comfort food', 'Quick bite', 'Casual']",,,,,,,,,,,,,,,,,,,,,,,,,,,,,,,,,,
Zeeks Pizza,http://zeekspizza.com/locations-hours/zeeks-pizza-fremontqueen-anne/,,,"41 Dravus St, Seattle, WA 98109",,,,,,,47.6483985,-122.3560023,,,"['4.2  (124)', '$$', 'Pizza', 'Seattle, WA', 'Closed ⋅ Opens 11AM', 'Relaxed, modern pizzeria chain serving classic & creative red & white pies, plus beer & wine.', 'Dine-in', 'Takeout', 'No-contact delivery']",,,,,,,,,,,,,,,,,,,,,,,,,,,,,,,,,,
Ba Bar University Village,http://babarseattle.com/,,(206) 328-1112,"2685 NE 46th St #2503, Seattle, WA 98105",,,,,,,47.6617806,-122.297975,,,"['4.2  (444)', '$$', 'Vietnamese', 'Seattle, WA', 'Closed ⋅ Opens 11AM', 'Dine-in', 'Curbside pickup', 'No-contact delivery']",,,,,,,,,,,,,,,,,,,,,,,,,,,,,,,,,,
Mustard Seed Cafe,,,(206) 623-2259,"1200 5th Ave, Seattle, WA 98101",,,,,,,47.6082168,-122.3329502,,,"['3.7  (32)', 'Restaurant', 'Seattle, WA', 'Closed ⋅ Opens 7AM', 'This weekday-only cafe with free Wi-Fi serves breakfast & lunch staples such as omelets & burgers.']",,,,,,,,,,,,,,,,,,,,,,,,,,,,,,,,,,
Ballard Pizza Company,http://www.ballardpizzacompany.com/,,(206) 946-9960,"5107 Ballard Ave NW, Seattle, WA 98107",,,,,,,47.6644716,-122.38133169999999,,,"['4.4  (720)', '$$', 'Pizza', 'Seattle, WA', 'Closed ⋅ Opens 4PM', 'Cool, industrial space serving New York-style pies whole or by the slice, plus sides & desserts.', 'Dine-in', 'Takeout', 'Delivery']",,,,,,,,,,,,,,,,,,,,,,,,,,,,,,,,,,
Purple Cafe and Wine Bar,http://purplecafe.com/,,(425) 502-6292,"430 106th Ave NE, Bellevue, WA 98004",,,,,,,47.614002,-122.198685,,,"['4.4  (1,169)', '$$$', 'American', 'Bellevue, WA', 'Temporarily closed', 'Stylish cafe with high ceiling & iron fixtures serving many wines plus small plates & heartier fare.']",,,,,,,,,,,,,,,,,,,,,,,,,,,,,,,,,,
Rise by FareStart,http://www.farestart.org/rise,,(206) 588-4031,"Amazon Houdini North, 399 Fairview Ave N, Seattle, WA 98109",,,,,,,47.621749099999995,-122.33459269999999,,,"['4.3  (52)', 'Coffee shop', 'Seattle, WA', 'Temporarily closed', 'No dine-in', 'Breakfast', 'Healthy options']",,,,,,,,,,,,,,,,,,,,,,,,,,,,,,,,,,
Ray's Boathouse,http://www.rays.com/,,(206) 789-3770,"6049 Seaview Ave NW, Seattle, WA 98107",,,,,,,47.673387999999996,-122.407643,,,"['4.5  (1,877)', '$$$', 'Seafood', 'Seattle, WA', 'Closed ⋅ Opens 11:30AM', 'Long-standing dockside restaurant & cafe serving Pacific NW seafood with views of Shilshole Bay.', 'Dine-in', 'Takeout', 'Delivery']",,,,,,,,,,,,,,,,,,,,,,,,,,,,,,,,,,
MI La Cay Restaurant,http://milacayseattle.com/,,(206) 322-6840,"212 12th Ave S, Seattle, WA 98144",,,,,,,47.6003346,-122.3167431,,,"['No reviews', 'Restaurant', 'Seattle, WA', 'Closed ⋅ Opens 10AM', 'Dine-in', 'Curbside pickup', 'No-contact delivery']",,,,,,,,,,,,,,,,,,,,,,,,,,,,,,,,,,
Hagerty's Sports Bar,https://www.wac.net/facility/hagertys-sports-bar/,,(206) 464-4626,"1325 6th Ave, Seattle, WA 98101",,,,,,,47.609560599999995,-122.3335479,,,"['4.2  (35)', 'Restaurant', 'Seattle, WA', 'Closed ⋅ Opens 11:30AM', 'Low-key spot at Washington Athletic Club with multiple HDTVs, classic pub grub & local craft beers.']",,,,,,,,,,,,,,,,,,,,,,,,,,,,,,,,,,
The Greenbrier,http://www.greenbrier.com/,,(844) 837-2466,"101 W Main St, White Sulphur Springs, WV 24986",,,,,,,37.7860374,-80.30795979999999,,,"['4.6  (2,177)', 'Resort', 'White Sulphur Springs, WV', 'Sprawling landmark resort featuring traditional quarters, plus restaurants, a spa & 5 golf courses.']",,,,,,,,,,,,,,,,,,,,,,,,,,,,,,,,,,
The Restaurant Store - Harrisburg,http://www.therestaurantstore.com/,,(717) 635-2016,"3435 Simpson Ferry Rd, Camp Hill, PA 17011",,,,,,,40.2258333,-76.9380556,,,"['4.8  (142)', 'Restaurant supply store', 'Camp Hill, PA', 'Closed ⋅ Opens 8AM']",,,,,,,,,,,,,,,,,,,,,,,,,,,,,,,,,,
BAIA,http://baiasf.com/,,(415) 861-0625,"300 Grove St, San Francisco, CA 94102",,,,,,,37.7781634,-122.42179549999999,,,"['No reviews', 'Vegan', 'San Francisco, CA', 'Closed ⋅ Opens 5PM', 'Dine-in', 'Takeout', 'Delivery']",,,,,,,,,,,,,,,,,,,,,,,,,,,,,,,,,,
Subway,http://www.subway.com/storelocator/,,(425) 820-7878,"13501 100th Ave NE, Kirkland, WA 98034",,,,,,,47.7211898,-122.2083806,,,"['3.8  (48)', '$', 'Fast Food', 'Kirkland, WA', 'In Juanita Row #2', 'Closed ⋅ Opens 9AM', 'Casual counter-serve chain for build-your-own sandwiches & salads, with health-conscious options.', 'Dine-in']",,,,,,,,,,,,,,,,,,,,,,,,,,,,,,,,,,
Billy Bob's Texas,http://www.billybobstexas.com/,,(817) 624-7117,"Fort Worth, TX · In the Fort Worth Stockyards",,,,,,,32.791326,-97.34742999999999,,,"['4.5  (4,958)', '$$', 'Bar', 'Fort Worth, TX', 'In the Fort Worth Stockyards', 'Temporarily closed', 'Iconic, huge country music honky-tonk with an indoor rodeo arena, mechanical bulls & dozens of bars.']",,,,,,,,,,,,,,,,,,,,,,,,,,,,,,,,,,
Restaurant Depot,http://www.restaurantdepot.com/,,(651) 917-0057,"1830 Como Ave, St Paul, MN 55108",,,,,,,44.97605,-93.17806,,,"['3.6  (200)', 'Restaurant supply store', 'St Paul, MN', 'Closed ⋅ Opens 7AM', 'Members-only chain selling wholesale food, beverages, equipment & supplies for restaurants & bars.']",,,,,,,,,,,,,,,,,,,,,,,,,,,,,,,,,,
Monkey's Tail,http://monkeystailhou.com/,,(713) 842-7188,"5802 Fulton St, Houston, TX 77009",,,,,,,29.811887499999997,-95.36954229999999,,,"['4.7  (260)', '$$', 'Bar', 'Houston, TX', 'Closed ⋅ Opens 4PM', 'Tropical cocktails plus easy-going grub like burgers, hot dogs, & pizza in a funky & modern bar.', 'Dine-in', 'Takeout']",,,,,,,,,,,,,,,,,,,,,,,,,,,,,,,,,,
Restaurant Depot,http://www.restaurantdepot.com/,,(503) 283-1200,"945 N Hayden Meadows Dr, Portland, OR 97217",,,,,,,45.597049999999996,-122.67608999999999,,,"['4.0  (93)', 'Restaurant supply store', 'Portland, OR', 'In Hayden Meadows Square', 'Closed ⋅ Opens 7AM', 'Members-only chain selling wholesale food, beverages, equipment & supplies for restaurants & bars.']",,,,,,,,,,,,,,,,,,,,,,,,,,,,,,,,,,
The Bar Room,https://www.themodernnyc.com/,,(212) 333-1220,"9 W 53rd St, New York, NY 10019",,,,,,,40.7609475,-73.9768318,,,"['4.7  (35)', 'Bar', 'New York, NY', 'In The Modern', 'Temporarily closed', 'High end dining room around a 24-seater marble bar specializing in contemporary food & fine wine.']",,,,,,,,,,,,,,,,,,,,,,,,,,,,,,,,,,
Senate Avenue Brewing Company,,,,"16000 Dillard Dr Suite F, Jersey Village, TX 77040",,,,,,,29.8800866,-95.562224,,,"['No reviews', 'Brewpub', 'Jersey Village, TX', 'Fast service', 'Casual', 'Beer']",,,,,,,,,,,,,,,,,,,,,,,,,,,,,,,,,,
The Dabney Cellar,https://www.thedabney.com/,,(202) 450-1015,"1222 9th St NW, Washington, DC 20001",,,,,,,38.9063922,-77.02417059999999,,,"['4.7  (73)', '$$', 'Bar', 'Washington, DC', 'Closed ⋅ Opens 5PM', ""Star chef's intimate, brick-walled, basement wine nook with raw bar fare, cheeses, hams & snacks."", 'Dine-in', 'Takeout']",,,,,,,,,,,,,,,,,,,,,,,,,,,,,,,,,,
Restaurant Depot,http://www.restaurantdepot.com/,,(763) 561-0303,"5925 Earle Brown Dr, Brooklyn Center, MN 55430",,,,,,,45.06397,-93.30722,,,"['3.4  (299)', 'Restaurant supply store', 'Brooklyn Center, MN', 'Closed ⋅ Opens 7AM', 'Members-only chain selling wholesale food, beverages, equipment & supplies for restaurants & bars.']",,,,,,,,,,,,,,,,,,,,,,,,,,,,,,,,,,
Boka Restaurant Group,http://www.bokagrp.com/,,(312) 238-9896,"820 W Lake St #200, Chicago, IL 60607",,,,,,,41.885886,-87.64845,,,"['4.2  (5)', 'Corporate office', 'Chicago, IL', 'Closed ⋅ Opens 9AM']",,,,,,,,,,,,,,,,,,,,,,,,,,,,,,,,,,
National Restaurant Association,http://www.restaurant.org/,,(312) 715-1010,"233 S Wacker Dr #3600, Chicago, IL 60606",,,,,,,41.8788792,-87.6358363,,,"['4.2  (6)', 'Association or organization', 'Chicago, IL', 'In the Willis Tower']",,,,,,,,,,,,,,,,,,,,,,,,,,,,,,,,,,
The Page,http://www.thepagebar.com/,,(415) 255-6101,"298 Divisadero St, San Francisco, CA 94117",,,,,,,37.77212,-122.4370476,,,"['4.4  (366)', '$', 'Bar', 'San Francisco, CA', 'Closed ⋅ Opens 3PM', 'No-frills spot featuring exposed-brick walls,  animal-head decor & a variety of beers. Cash only.', 'Dine-in', 'Takeout']",,,,,,,,,,,,,,,,,,,,,,,,,,,,,,,,,,
Nations Restaurant News,http://www.nrn.com/,,(781) 793-7888,"59 Pond St, Sharon, MA 02067",,,,,,,42.1213305,-71.1786083,,,"['5.0  (1)', 'News service', 'Sharon, MA']",,,,,,,,,,,,,,,,,,,,,,,,,,,,,,,,,,
Municipal Fish Market at The Wharf,https://www.wharfdc.com/fish-market/,,,"1100 Maine Ave SW, Washington, DC 20024",,,,,,,38.8812918,-77.0280882,,,"['4.5  (7,730)', '$', 'Seafood', 'Washington, DC', 'Closed ⋅ Opens 8AM']",,,,,,,,,,,,,,,,,,,,,,,,,,,,,,,,,,
Disney Springs,https://www.disneysprings.com/?CMP=OKC-10460_GM_WDW_destination_disneysprings_NA,,(407) 939-6244,"1486 Buena Vista Dr, Lake Buena Vista, FL 32830",,,,,,,28.3709743,-81.5191335,,,"['4.7  (129,965)', 'Tourist attraction', 'Lake Buena Vista, FL', 'Closed ⋅ Opens 10AM', ""Complex with restaurants, bars, live shows & shops, including the world's largest Disney store.""]",,,,,,,,,,,,,,,,,,,,,,,,,,,,,,,,,,
National Restaurant Association,http://www.restaurant.org/,,(202) 331-5900,"2055 L St NW #700, Washington, DC 20036",,,,,,,38.9038621,-77.0462079,,,"['3.5  (15)', 'Corporate office', 'Washington, DC', 'Closed ⋅ Opens 9AM']",,,,,,,,,,,,,,,,,,,,,,,,,,,,,,,,,,
Nations Restaurant News,http://www.nrn.com/,,(831) 422-1744,"36 Quail Run Cir # 100F, Salinas, CA 93907",,,,,,,36.685508999999996,-121.671353,,,"['5.0  (1)', 'Newspaper publisher', 'Salinas, CA']",,,,,,,,,,,,,,,,,,,,,,,,,,,,,,,,,,
Dollywood,https://www.dollywood.com/?cid=loc_000001,,,"2700 Dollywood Parks Blvd, Pigeon Forge, TN 37863",,,,,,,35.7951026,-83.5311862,,,"['4.6  (25,454)', 'Tourist attraction', '2700 Dollywood Parks Blvd', 'Closed ⋅ Opens 10AM', 'Owned by Dolly Parton, this theme park has water slides, rides & a number of live music shows.']",,,,,,,,,,,,,,,,,,,,,,,,,,,,,,,,,,
Disneyland Park,https://disneyland.disney.go.com/destinations/disneyland/?CMP=OKC-330339_GM_DLR_destination_disneylandpark_NA,,(714) 781-4636,"1313 Disneyland Dr, Anaheim, CA 92802",,,,,,,33.8120918,-117.9189742,,,"['4.6  (111,026)', 'Theme park', '1313 Disneyland Dr', 'Temporarily closed', 'Iconic amusement park featuring 8 themed ""lands"" with rides, shows & costumed characters.']",,,,,,,,,,,,,,,,,,,,,,,,,,,,,,,,,,
The Domain,https://www.simon.com/mall/the-domain,,(512) 795-4230,"11410 Century Oaks Terrace, Austin, TX 78758",,,,,,,30.400601599999998,-97.7251211,,,"['4.5  (9,701)', 'Shopping mall', '11410 Century Oaks Terrace', 'Closed ⋅ Opens 11AM', 'Outdoor mall offering a variety of upscale shops & department stores plus dining options & a cinema.']",,,,,,,,,,,,,,,,,,,,,,,,,,,,,,,,,,
Grand Central Terminal,https://www.grandcentralterminal.com/,,(212) 340-2583,"89 E 42nd St, New York, NY 10017",,,,,,,40.7527262,-73.9772294,,,"['4.7  (5,042)', '$$', 'Train station', '89 E 42nd St', 'Iconic train station known for its grand facade & main concourse, also offering shops & dining.']",,,,,,,,,,,,,,,,,,,,,,,,,,,,,,,,,,
El Tovar Hotel,https://www.grandcanyonlodges.com/lodging/el-tovar-hotel/,,(928) 638-2631,9 Village Loop Drive · In Grand Canyon National Park,,,,,,,36.0574374,-112.1376772,,,"['4.4  (2,543)', 'Hotel', '9 Village Loop Drive', 'In Grand Canyon National Park', 'Landmark hotel on the rim of the Grand Canyon offering classic rooms, plus haute dining & a lounge.']",,,,,,,,,,,,,,,,,,,,,,,,,,,,,,,,,,
WBKO Studio,http://www.wbko.com/,,(270) 781-1313,"2727 Russellville Rd, Bowling Green, KY 42101",,,,,,,36.9603051,-86.4933405,,,"['4.5  (73)', 'Television station', '2727 Russellville Rd', 'Closed ⋅ Opens 8AM']",,,,,,,,,,,,,,,,,,,,,,,,,,,,,,,,,,
The Heart and Trotter Butchery,http://www.theheartandtrotter.com/,,(619) 564-8976,"2855 El Cajon Blvd #1, San Diego, CA 92104",,,,,,,32.754897,-117.13248259999999,,,"['4.6  (124)', 'Butcher shop deli', '2855 El Cajon Blvd #1', 'Closed ⋅ Opens 11AM', 'Takeout']",,,,,,,,,,,,,,,,,,,,,,,,,,,,,,,,,,
Westside Provisions District,http://westsideprovisions.com/,,(678) 974-1940,"1198 Howell Mill Rd, Atlanta, GA 30318",,,,,,,33.7867658,-84.4122192,,,"['4.5  (1,542)', 'Shopping mall', '1198 Howell Mill Rd', 'This upscale retail area has high-end shops for fashion & home goods, plus elegant restaurants.']",,,,,,,,,,,,,,,,,,,,,,,,,,,,,,,,,,
University of Delaware,http://www.udel.edu/,,(302) 831-2792,"Newark, DE 19716",,,,,,,39.6779504,-75.7506114,,,"['4.2  (239)', 'University', 'Public research school dating to 1743 & known for its science & engineering programs.']",,,,,,,,,,,,,,,,,,,,,,,,,,,,,,,,,,
Hyatt Place Flushing/Laguardia Airport,https://www.hyatt.com/en-US/hotel/new-york/hyatt-place-flushing-laguardia-airport/nyczf?src=corp_lclb_gmb_seo_nam_nyczf,,(718) 888-1234,133-42 39th Ave · In One Fulton Square,,,,,,,40.7593849,-73.8326682,,,"['4.2  (696)', 'Hotel', '133-42 39th Ave', 'In One Fulton Square', 'WiFi & an airport shuttle are free at this modern hotel with an indoor pool & a bar.']",,,,,,,,,,,,,,,,,,,,,,,,,,,,,,,,,,
Brucken Foods,http://www.bruckenfoods.com/,,(937) 252-7092,"3634 Cargo Rd,, Vandalia, OH 45377",,,,,,,39.8960818,-84.2280591,,,"['4.8  (5)', 'Distribution service', '3634 Cargo Rd,', 'In Dayton International Airport']",,,,,,,,,,,,,,,,,,,,,,,,,,,,,,,,,,
Kriner's Diner,http://krinersdiner.com/,,(907) 929-8257,"2409 C St, Anchorage, AK 99503",,,,,,,61.1991861,-149.8868067,,,"['4.6  (840)', '$$', 'Diner', '2409 C St', 'Closed ⋅ Opens 7AM Wed', 'Modest, photo-lined family eatery serving eggs, burgers, sandwiches & other classic American fare.', 'Dine-in', 'Takeout', 'Delivery']",,,,,,,,,,,,,,,,,,,,,,,,,,,,,,,,,,
sketch,https://sketch.london/,,+44 20 7659 4500,"9 Conduit St, Mayfair, London W1S 2XG, United Kingdom",,,,,,,51.512693,-0.141529,,,"['4.3  (5,241)', '$$$$', 'Modern European', '9 Conduit St', 'Opens soon ⋅ 9AM', 'Quirky, 18th-century townhouse tea room that transforms into a cocktail lounge every evening.']",,,,,,,,,,,,,,,,,,,,,,,,,,,,,,,,,,
Restaurant Facil,https://facil.de/de/,,+49 30 590051234,Potsdamer Straße 3 · In The Mandala Hotel,,,,,,,52.508992299999996,13.3735699,,,"['4.7  (475)', '$$$$', 'Fine Dining', 'Potsdamer Straße 3', 'In The Mandala Hotel', 'Closed ⋅ Opens 12PM', 'Acclaimed fine-dining spot with large glass windows and minimalist decor, serving a seasonal menu.']",,,,,,,,,,,,,,,,,,,,,,,,,,,,,,,,,,
Under Lindesnes,http://www.under.no/,,,"4521 Båly, Norway",,,,,,,58.0408188,7.1545787,,,"['4.7  (174)', '$$$$', 'Restaurant', 'Closed ⋅ Opens 6PM', 'Cozy', 'Beer', 'Wine']",,,,,,,,,,,,,,,,,,,,,,,,,,,,,,,,,,
Høst,https://cofoco.dk/restauranter/hoest/?utm_source=google&utm_medium=organic&utm_campaign=gmb-website&utm_content=hoest,,+45 89 93 84 09,"Nørre Farimagsgade 41, 1364 København, Denmark",,,,,,,55.6833518,12.5661528,,,"['4.7  (1,699)', '$$$', 'Fine Dining', 'Nørre Farimagsgade 41', 'Closed ⋅ Opens 5:30PM', 'Stylish dining room with white walls & rustic wooden tables, serving contemporary Nordic cuisine.']",,,,,,,,,,,,,,,,,,,,,,,,,,,,,,,,,,
Tickets,https://elbarri.com/,,+34 932 92 42 52,"Avinguda del Paral·lel, 164, 08015 Barcelona, Spain",,,,,,,41.3752065,2.1568500999999998,,,"['4.5  (1,831)', '$$$$', 'Fine Dining', 'Avinguda del Paral', 'lel, 164', 'Closed ⋅ Opens 7PM', 'Dine-in', 'Takeout', 'Delivery']",,,,,,,,,,,,,,,,,,,,,,,,,,,,,,,,,,
Restaurant Au Passage,http://www.restaurant-aupassage.fr/,,+33 1 43 55 07 52,"1 bis Passage Saint-Sébastien, 75011 Paris, France",,,,,,,48.8615804,2.3686499999999997,,,"['4.3  (516)', '$$', 'French', '1 bis Passage Saint-Sébastien', 'Closed ⋅ Opens 12:30PM', 'Dine-in', 'Delivery']",,,,,,,,,,,,,,,,,,,,,,,,,,,,,,,,,,
Flemings Restaurant - Country House,,,+353 21 482 1621,"Tivoli, Cork, Ireland",,,,,,,51.9056481,-8.410293,,,"['4.5  (28)', 'Modern French', 'Chic French dining in a Georgian house and garden with period features, plus 4 en suite hotel rooms.', 'Dine-in', 'Delivery']",,,,,,,,,,,,,,,,,,,,,,,,,,,,,,,,,,
Restaurant Le Mas,http://lemas.oxatis.com/,,+33 4 76 71 41 36,"4 Impasse Victor Hugo, 38190 Froges, France",,,,,,,45.261156,5.912801,,,"['4.5  (225)', '$$', 'French', '4 Impasse Victor Hugo', 'Closed ⋅ Opens 12PM Thu', 'A cozy restaurant with a porch & a terrace, offering classic cuisine & functional rooms.']",,,,,,,,,,,,,,,,,,,,,,,,,,,,,,,,,,
Breezeway Motel,http://www.breezewaymotel.com/,,(910) 328-7751,"636 Channel Blvd, Topsail Beach, NC 28445",,,,,,,34.3684984,-77.6288143,,,"['4.3  (158)', 'Motel', '636 Channel Blvd', 'Basic lodging in converted Navy barracks with a seafood restaurant, an outdoor pool & a pier.']",,,,,,,,,,,,,,,,,,,,,,,,,,,,,,,,,,
University of Delaware,http://www.udel.edu/,,,"Newark, DE 19716",,,,,,,39.6779504,-75.7506114,,,"['4.2  (239)', 'University', 'Public research school dating to 1743 & known for its science & engineering programs.']",,,,,,,,,,,,,,,,,,,,,,,,,,,,,,,,,,
WREX-TV,http://www.wrex.com/,,(815) 335-2213,"10322 Auburn Rd, Rockford, IL 61101",,,,,,,42.2967313,-89.2395923,,,"['3.8  (19)', 'Television station', '10322 Auburn Rd']",,,,,,,,,,,,,,,,,,,,,,,,,,,,,,,,,,
Brucken Foods,http://www.bruckenfoods.com/,,(937) 252-7092,"3634 Cargo Rd,, Vandalia, OH 45377",,,,,,,39.8960818,-84.2280591,,,"['4.8  (5)', 'Distribution service', '3634 Cargo Rd,']",,,,,,,,,,,,,,,,,,,,,,,,,,,,,,,,,,
Kriner's Diner,http://krinersdiner.com/,,(907) 929-8257,"2409 C St, Anchorage, AK 99503",,,,,,,61.1991861,-149.8868067,,,"['4.6  (840)', '$$', 'Diner', '2409 C St', 'Closed ⋅ Opens 7AM Wed', 'Modest, photo-lined family eatery serving eggs, burgers, sandwiches & other classic American fare.', 'Dine-in', 'Takeout', 'Delivery']",,,,,,,,,,,,,,,,,,,,,,,,,,,,,,,,,,
sketch,https://sketch.london/,,+44 20 7659 4500,"9 Conduit St, Mayfair, London W1S 2XG, United Kingdom",,,,,,,51.512693,-0.141529,,,"['4.3  (5,241)', '$$$$', 'Modern European', '9 Conduit St', 'Opens soon ⋅ 9AM', 'Quirky, 18th-century townhouse tea room that transforms into a cocktail lounge every evening.']",,,,,,,,,,,,,,,,,,,,,,,,,,,,,,,,,,
Restaurant Facil,https://facil.de/de/,,+49 30 590051234,"Potsdamer Straße 3, 10785 Berlin, Germany",,,,,,,52.508992299999996,13.3735699,,,"['4.7  (475)', '$$$$', 'Fine Dining', 'Potsdamer Straße 3', 'Closed ⋅ Opens 12PM', 'Acclaimed fine-dining spot with large glass windows and minimalist decor, serving a seasonal menu.']",,,,,,,,,,,,,,,,,,,,,,,,,,,,,,,,,,
Under Lindesnes,http://www.under.no/,,,"4521 Båly, Norway",,,,,,,58.0408188,7.1545787,,,"['4.7  (174)', '$$$$', 'Restaurant', 'Closed ⋅ Opens 6PM', 'Cozy', 'Beer', 'Wine']",,,,,,,,,,,,,,,,,,,,,,,,,,,,,,,,,,
Arpège,http://www.alain-passard.com/,,+33 1 47 05 09 06,"84 Rue de Varenne, 75007 Paris, France",,,,,,,48.8557372,2.3170058,,,"['4.4  (772)', '$$$$', 'Haute French', '84 Rue de Varenne', 'Temporarily closed', 'Cozy', 'Vegetarian options', 'Delivery']",,,,,,,,,,,,,,,,,,,,,,,,,,,,,,,,,,
Restaurant Gordon Ramsay,https://www.gordonramsayrestaurants.com/restaurant-gordon-ramsay/,,+44 20 7352 4441,"68 Royal Hospital Rd, Chelsea, London SW3 4HP, United Kingdom",,,,,,,51.4854801,-0.16212269999999998,,,"['4.5  (1,373)', '$$$$', 'Haute French', '68 Royal Hospital Rd', 'Closed ⋅ Opens 6PM', ""Ramsay's flagship serving polished French dishes from carefully chosen ingredients.""]",,,,,,,,,,,,,,,,,,,,,,,,,,,,,,,,,,
Høst,https://cofoco.dk/restauranter/hoest/?utm_source=google&utm_medium=organic&utm_campaign=gmb-website&utm_content=hoest,,+45 89 93 84 09,"Nørre Farimagsgade 41, 1364 København, Denmark",,,,,,,55.6833518,12.5661528,,,"['4.7  (1,699)', '$$$', 'Fine Dining', 'Nørre Farimagsgade 41', 'Closed ⋅ Opens 5:30PM', 'Stylish dining room with white walls & rustic wooden tables, serving contemporary Nordic cuisine.']",,,,,,,,,,,,,,,,,,,,,,,,,,,,,,,,,,
Alain Ducasse au Plaza Athénée,https://www.dorchestercollection.com/en/paris/hotel-plaza-athenee/restaurants-bars/alain-ducasse-au-plaza-athenee/,,+33 1 53 67 66 65,"25 Avenue Montaigne, 75008 Paris, France",,,,,,,48.8661932,2.3042141,,,"['4.4  (318)', '$$$$', 'Haute French', '25 Avenue Montaigne', 'Closed ⋅ Opens 7:30PM', 'Dine-in', 'Delivery']",,,,,,,,,,,,,,,,,,,,,,,,,,,,,,,,,,
Tickets,https://elbarri.com/,,+34 932 92 42 52,"Avinguda del Paral·lel, 164, 08015 Barcelona, Spain",,,,,,,41.3752065,2.1568500999999998,,,"['4.5  (1,831)', '$$$$', 'Fine Dining', 'Avinguda del Paral', 'lel, 164', 'Closed ⋅ Opens 7PM', 'Dine-in', 'Takeout', 'Delivery']",,,,,,,,,,,,,,,,,,,,,,,,,,,,,,,,,,
Restaurant Au Passage,http://www.restaurant-aupassage.fr/,,+33 1 43 55 07 52,"1 bis Passage Saint-Sébastien, 75011 Paris, France",,,,,,,48.8615804,2.3686499999999997,,,"['4.3  (516)', '$$', 'French', '1 bis Passage Saint-Sébastien', 'Closed ⋅ Opens 12:30PM', 'Dine-in', 'Delivery']",,,,,,,,,,,,,,,,,,,,,,,,,,,,,,,,,,
À Parte,http://www.a-parte.com/,,+351 21 354 3068,"Av. Defensores de Chaves 14C, 1000-117 Lisboa, Portugal",,,,,,,38.7336798,-9.1428681,,,"['4.3  (1,169)', '$$', 'Restaurant', 'Av. Defensores de Chaves 14C', 'Closed ⋅ Opens 12PM', 'Dine-in', 'Takeout', 'Delivery']",,,,,,,,,,,,,,,,,,,,,,,,,,,,,,,,,,
Les Petits Déjeuners du Plaza Athénée,https://www.dorchestercollection.com/fr/paris/hotel-plaza-athenee/restaurants-bars/petits-dejeuners-et-brunchs/,,+33 1 53 67 65 36,"25 Avenue Montaigne, 75008 Paris, France",,,,,,,48.8662944,2.3044222,,,"['4.7  (1,664)', 'Breakfast', '25 Avenue Montaigne', 'Temporarily closed', 'No dine-in', 'Good for kids', 'No delivery']",,,,,,,,,,,,,,,,,,,,,,,,,,,,,,,,,,
Sobrino de Botín,http://www.botin.es/,,+34 913 66 42 17,"Calle de Cuchilleros, 17, 28005 Madrid, Spain",,,,,,,40.4141803,-3.7079153999999996,,,"['4.3  (5,822)', '$$$', 'Spanish', 'Calle de Cuchilleros, 17', 'Closed ⋅ Opens 1PM', 'Spanish fixture open since 1725, famous for its roast suckling pig mentioned in a Hemingway novel.']",,,,,,,,,,,,,,,,,,,,,,,,,,,,,,,,,,
Restaurant 108,https://108.dk/,,,"Strandgade 108, 1401 København, Denmark",,,,,,,55.6776341,12.5978228,,,"['4.2  (812)', '$$$', 'Restaurant', 'Strandgade 108', 'Closed ⋅ Opens 5PM Thu', 'Outdoor seating', 'Great cocktails', 'Cozy']",,,,,,,,,,,,,,,,,,,,,,,,,,,,,,,,,,
Riche,http://www.riche.se/,,+46 8 545 035 60,"Birger Jarlsgatan 4, 114 34 Stockholm, Sweden",,,,,,,59.3336111,18.075555599999998,,,"['4.1  (1,741)', '$$$', 'Swedish', 'Birger Jarlsgatan 4', 'Closed ⋅ Opens 11AM', 'Hip bistro with a Swedish/French menu & a quirky decor of bold artworks & chandeliers.']",,,,,,,,,,,,,,,,,,,,,,,,,,,,,,,,,,
Gordon Ramsay Restaurants,http://www.gordonramsayrestaurants.com/,,+44 20 7592 1360,"539-547, Wandsworth Rd, Clapham Town, London SW8 3JD, United Kingdom",,,,,,,51.4701167,-0.1394679,,,"['3.9  (43)', 'Corporate office', '539-547, Wandsworth Rd', 'Opens soon ⋅ 9AM']",,,,,,,,,,,,,,,,,,,,,,,,,,,,,,,,,,
